{
"type": "FeatureCollection",
"name": "Accesos metrovalencia",
"features": [
{"type":"Feature","properties":{"fid":1,"id":"14","nom_cataleg":"VT-006","id_stationarea":"VT-006_01","estadoactual_cas":"En uso","estadoactual_val":"En ús","ficticio_cas":"Falso","ficticio_val":"Fals","tipo_acceso_cas":"Boca metro","tipo_acceso_val":"Boca metro","tipo_linea_cas":"Metro","tipo_linea_val":"Metro","globalid":"{BFC045F1-8B58-48F1-B381-616C86C148B9}","altabd":"2018-02-15 15:33:22","created_user":"CATALEGFFCC","last_edited_date":"2023-05-15 07:25:12","last_edited_user":"CATALEGFFCC"},"geometry":{"type":"Point","coordinates":[-0.3790409,39.4639623]}},
{"type":"Feature","properties":{"fid":2,"id":"15","nom_cataleg":"VT-009","id_stationarea":"VT-009a_02","estadoactual_cas":"En uso","estadoactual_val":"En ús","ficticio_cas":"Falso","ficticio_val":"Fals","tipo_acceso_cas":"Boca metro","tipo_acceso_val":"Boca metro","tipo_linea_cas":"Metro","tipo_linea_val":"Metro","globalid":"{6954E9D2-CB65-4679-85BA-1514452A6498}","altabd":"2018-02-15 15:33:22","created_user":"CATALEGFFCC","last_edited_date":"2023-05-15 07:25:12","last_edited_user":"CATALEGFFCC"},"geometry":{"type":"Point","coordinates":[-0.3768191,39.4673366]}},
{"type":"Feature","properties":{"fid":3,"id":"17","nom_cataleg":"VT-009","id_stationarea":"VT-009a_02","estadoactual_cas":"En uso","estadoactual_val":"En ús","ficticio_cas":"Falso","ficticio_val":"Fals","tipo_acceso_cas":"Boca metro","tipo_acceso_val":"Boca metro","tipo_linea_cas":"Metro","tipo_linea_val":"Metro","globalid":"{C324AD80-36B1-4CB3-842C-889F4B021E0C}","altabd":"2018-02-15 15:33:22","created_user":"CATALEGFFCC","last_edited_date":"2023-05-15 07:25:12","last_edited_user":"CATALEGFFCC"},"geometry":{"type":"Point","coordinates":[-0.3763034,39.4672116]}},
{"type":"Feature","properties":{"fid":4,"id":"18","nom_cataleg":"VT-009","id_stationarea":"VT-009a_02","estadoactual_cas":"En uso","estadoactual_val":"En ús","ficticio_cas":"Falso","ficticio_val":"Fals","tipo_acceso_cas":"Boca metro","tipo_acceso_val":"Boca metro","tipo_linea_cas":"Metro","tipo_linea_val":"Metro","globalid":"{47D16C3C-B10D-4E3F-B9EB-E01DC80DFA2D}","altabd":"2018-02-15 15:33:22","created_user":"CATALEGFFCC","last_edited_date":"2023-05-15 07:25:12","last_edited_user":"CATALEGFFCC"},"geometry":{"type":"Point","coordinates":[-0.3776137,39.4678064]}},
{"type":"Feature","properties":{"fid":5,"id":"21","nom_cataleg":"VT-005","id_stationarea":"VT-005_03","estadoactual_cas":"En uso","estadoactual_val":"En ús","ficticio_cas":"Falso","ficticio_val":"Fals","tipo_acceso_cas":"Boca metro","tipo_acceso_val":"Boca metro","tipo_linea_cas":"Metro","tipo_linea_val":"Metro","globalid":"{26610BAE-88F9-4D1A-A298-0F9C6F3AA0FA}","altabd":"2018-02-15 15:33:22","created_user":"CATALEGFFCC","last_edited_date":"2023-05-15 07:25:12","last_edited_user":"CATALEGFFCC"},"geometry":{"type":"Point","coordinates":[-0.4248378,39.4991397]}},
{"type":"Feature","properties":{"fid":6,"id":"22","nom_cataleg":"VT-005","id_stationarea":"VT-005_03","estadoactual_cas":"En uso","estadoactual_val":"En ús","ficticio_cas":"Falso","ficticio_val":"Fals","tipo_acceso_cas":"Boca metro","tipo_acceso_val":"Boca metro","tipo_linea_cas":"Metro","tipo_linea_val":"Metro","globalid":"{8CEA512B-85E6-47EC-AEDA-30AD9C9C81B1}","altabd":"2018-02-15 15:33:22","created_user":"CATALEGFFCC","last_edited_date":"2023-05-15 07:25:12","last_edited_user":"CATALEGFFCC"},"geometry":{"type":"Point","coordinates":[-0.425087,39.4988893]}},
{"type":"Feature","properties":{"fid":7,"id":"24","nom_cataleg":"VT-002","id_stationarea":"VT-002b_03","estadoactual_cas":"En uso","estadoactual_val":"En ús","ficticio_cas":"Falso","ficticio_val":"Fals","tipo_acceso_cas":"Boca metro","tipo_acceso_val":"Boca metro","tipo_linea_cas":"Metro","tipo_linea_val":"Metro","globalid":"{A9C4D902-B994-4A75-A6D8-4AB6FA2520C3}","altabd":"2018-02-15 15:33:22","created_user":"CATALEGFFCC","last_edited_date":"2023-05-15 07:25:12","last_edited_user":"CATALEGFFCC"},"geometry":{"type":"Point","coordinates":[-0.389732,39.4773578]}},
{"type":"Feature","properties":{"fid":8,"id":"26","nom_cataleg":"VT-002","id_stationarea":"VT-002b_03","estadoactual_cas":"En uso","estadoactual_val":"En ús","ficticio_cas":"Falso","ficticio_val":"Fals","tipo_acceso_cas":"Boca metro","tipo_acceso_val":"Boca metro","tipo_linea_cas":"Metro","tipo_linea_val":"Metro","globalid":"{D61A0D1C-EF02-4443-8EE7-D523A502833C}","altabd":"2018-02-15 15:33:22","created_user":"CATALEGFFCC","last_edited_date":"2023-05-15 07:25:12","last_edited_user":"CATALEGFFCC"},"geometry":{"type":"Point","coordinates":[-0.3908421,39.4791834]}},
{"type":"Feature","properties":{"fid":9,"id":"30","nom_cataleg":"VT-005","id_stationarea":"VT-005_02","estadoactual_cas":"En uso","estadoactual_val":"En ús","ficticio_cas":"Falso","ficticio_val":"Fals","tipo_acceso_cas":"Boca metro","tipo_acceso_val":"Boca metro","tipo_linea_cas":"Metro","tipo_linea_val":"Metro","globalid":"{7B28EA40-FCF9-479D-8D68-10BAA6BC21B0}","altabd":"2018-02-15 15:33:22","created_user":"CATALEGFFCC","last_edited_date":"2023-05-15 07:25:12","last_edited_user":"CATALEGFFCC"},"geometry":{"type":"Point","coordinates":[-0.4189105,39.5017997]}},
{"type":"Feature","properties":{"fid":10,"id":"42","nom_cataleg":"VT-011","id_stationarea":"VT-011_02","estadoactual_cas":"En uso","estadoactual_val":"En ús","ficticio_cas":"Falso","ficticio_val":"Fals","tipo_acceso_cas":"Boca metro","tipo_acceso_val":"Boca metro","tipo_linea_cas":"Metro","tipo_linea_val":"Metro","globalid":"{1B52D42D-4185-4C9B-A0F1-631FA53398BC}","altabd":"2018-02-15 15:33:22","created_user":"CATALEGFFCC","last_edited_date":"2023-05-15 07:25:12","last_edited_user":"CATALEGFFCC"},"geometry":{"type":"Point","coordinates":[-0.3497681,39.4701312]}},
{"type":"Feature","properties":{"fid":11,"id":"43","nom_cataleg":"VT-011","id_stationarea":"VT-011_02","estadoactual_cas":"En uso","estadoactual_val":"En ús","ficticio_cas":"Falso","ficticio_val":"Fals","tipo_acceso_cas":"Boca metro","tipo_acceso_val":"Boca metro","tipo_linea_cas":"Metro","tipo_linea_val":"Metro","globalid":"{40B736FF-FBF6-4F87-881B-37AE34B9464E}","altabd":"2018-02-15 15:33:22","created_user":"CATALEGFFCC","last_edited_date":"2023-05-15 07:25:12","last_edited_user":"CATALEGFFCC"},"geometry":{"type":"Point","coordinates":[-0.3517785,39.4707101]}},
{"type":"Feature","properties":{"fid":12,"id":"44","nom_cataleg":"VT-011","id_stationarea":"VT-011_01","estadoactual_cas":"En uso","estadoactual_val":"En ús","ficticio_cas":"Falso","ficticio_val":"Fals","tipo_acceso_cas":"Boca metro","tipo_acceso_val":"Boca metro","tipo_linea_cas":"Metro","tipo_linea_val":"Metro","globalid":"{28A344D3-EE29-4439-8591-B09E4EABEA1C}","altabd":"2018-02-15 15:33:22","created_user":"CATALEGFFCC","last_edited_date":"2023-05-15 07:25:12","last_edited_user":"CATALEGFFCC"},"geometry":{"type":"Point","coordinates":[-0.3592542,39.4727584]}},
{"type":"Feature","properties":{"fid":13,"id":"45","nom_cataleg":"VT-011","id_stationarea":"VT-011_01","estadoactual_cas":"En uso","estadoactual_val":"En ús","ficticio_cas":"Falso","ficticio_val":"Fals","tipo_acceso_cas":"Boca metro","tipo_acceso_val":"Boca metro","tipo_linea_cas":"Metro","tipo_linea_val":"Metro","globalid":"{EAB97DCC-A25A-4F24-B637-F244DCC70CF1}","altabd":"2018-02-15 15:33:22","created_user":"CATALEGFFCC","last_edited_date":"2023-05-15 07:25:12","last_edited_user":"CATALEGFFCC"},"geometry":{"type":"Point","coordinates":[-0.3591687,39.4729553]}},
{"type":"Feature","properties":{"fid":14,"id":"49","nom_cataleg":"VT-011","id_stationarea":"VT-011_03","estadoactual_cas":"En uso","estadoactual_val":"En ús","ficticio_cas":"Falso","ficticio_val":"Fals","tipo_acceso_cas":"Boca metro","tipo_acceso_val":"Boca metro","tipo_linea_cas":"Metro","tipo_linea_val":"Metro","globalid":"{34A8182B-E4CA-44EC-A66D-5AB0C2F5E9ED}","altabd":"2018-02-15 15:33:22","created_user":"CATALEGFFCC","last_edited_date":"2023-05-15 07:25:12","last_edited_user":"CATALEGFFCC"},"geometry":{"type":"Point","coordinates":[-0.3428265,39.4662848]}},
{"type":"Feature","properties":{"fid":15,"id":"50","nom_cataleg":"VT-011","id_stationarea":"VT-011_03","estadoactual_cas":"En uso","estadoactual_val":"En ús","ficticio_cas":"Falso","ficticio_val":"Fals","tipo_acceso_cas":"Boca metro","tipo_acceso_val":"Boca metro","tipo_linea_cas":"Metro","tipo_linea_val":"Metro","globalid":"{9398DCC4-1F18-4DB9-AA7D-A2530B9AC292}","altabd":"2018-02-15 15:33:22","created_user":"CATALEGFFCC","last_edited_date":"2023-05-15 07:25:12","last_edited_user":"CATALEGFFCC"},"geometry":{"type":"Point","coordinates":[-0.3431471,39.4678069]}},
{"type":"Feature","properties":{"fid":16,"id":"52","nom_cataleg":"VT-011","id_stationarea":"VT-011_01","estadoactual_cas":"En uso","estadoactual_val":"En ús","ficticio_cas":"Falso","ficticio_val":"Fals","tipo_acceso_cas":"Boca metro","tipo_acceso_val":"Boca metro","tipo_linea_cas":"Metro","tipo_linea_val":"Metro","globalid":"{691A37ED-649F-46F3-898C-F37725BEC0E4}","altabd":"2018-02-15 15:33:22","created_user":"CATALEGFFCC","last_edited_date":"2023-05-15 07:25:12","last_edited_user":"CATALEGFFCC"},"geometry":{"type":"Point","coordinates":[-0.3579813,39.4723056]}},
{"type":"Feature","properties":{"fid":17,"id":"53","nom_cataleg":"VT-010","id_stationarea":"VT-010a_03","estadoactual_cas":"En uso","estadoactual_val":"En ús","ficticio_cas":"Falso","ficticio_val":"Fals","tipo_acceso_cas":"Boca metro","tipo_acceso_val":"Boca metro","tipo_linea_cas":"Metro","tipo_linea_val":"Metro","globalid":"{33F3A115-8B3E-4E2B-B80A-3FA8A40469B9}","altabd":"2018-02-15 15:33:22","created_user":"CATALEGFFCC","last_edited_date":"2023-05-15 07:25:12","last_edited_user":"CATALEGFFCC"},"geometry":{"type":"Point","coordinates":[-0.3580788,39.4927855]}},
{"type":"Feature","properties":{"fid":18,"id":"54","nom_cataleg":"VT-010","id_stationarea":"VT-010a_03","estadoactual_cas":"En uso","estadoactual_val":"En ús","ficticio_cas":"Falso","ficticio_val":"Fals","tipo_acceso_cas":"Boca metro","tipo_acceso_val":"Boca metro","tipo_linea_cas":"Metro","tipo_linea_val":"Metro","globalid":"{98EF95BC-BDCB-4703-819C-D9408AB5BA94}","altabd":"2018-02-15 15:33:22","created_user":"CATALEGFFCC","last_edited_date":"2023-05-15 07:25:12","last_edited_user":"CATALEGFFCC"},"geometry":{"type":"Point","coordinates":[-0.3585454,39.492804]}},
{"type":"Feature","properties":{"fid":19,"id":"56","nom_cataleg":"VT-010","id_stationarea":"VT-010a_03","estadoactual_cas":"En uso","estadoactual_val":"En ús","ficticio_cas":"Falso","ficticio_val":"Fals","tipo_acceso_cas":"Boca metro","tipo_acceso_val":"Boca metro","tipo_linea_cas":"Metro","tipo_linea_val":"Metro","globalid":"{C1F9FD94-C68F-469E-A7BA-5485C2F3308C}","altabd":"2018-02-15 15:33:22","created_user":"CATALEGFFCC","last_edited_date":"2023-05-15 07:25:12","last_edited_user":"CATALEGFFCC"},"geometry":{"type":"Point","coordinates":[-0.3593906,39.4916157]}},
{"type":"Feature","properties":{"fid":20,"id":"57","nom_cataleg":"VT-010","id_stationarea":"VT-010a_03","estadoactual_cas":"En uso","estadoactual_val":"En ús","ficticio_cas":"Falso","ficticio_val":"Fals","tipo_acceso_cas":"Boca metro","tipo_acceso_val":"Boca metro","tipo_linea_cas":"Metro","tipo_linea_val":"Metro","globalid":"{DC86A95B-971F-4521-802B-45D7927E140D}","altabd":"2018-02-15 15:33:22","created_user":"CATALEGFFCC","last_edited_date":"2023-05-15 07:25:12","last_edited_user":"CATALEGFFCC"},"geometry":{"type":"Point","coordinates":[-0.3587936,39.4916523]}},
{"type":"Feature","properties":{"fid":21,"id":"58","nom_cataleg":"VT-010","id_stationarea":"VT-010a_01","estadoactual_cas":"En uso","estadoactual_val":"En ús","ficticio_cas":"Falso","ficticio_val":"Fals","tipo_acceso_cas":"Boca metro","tipo_acceso_val":"Boca metro","tipo_linea_cas":"Metro","tipo_linea_val":"Metro","globalid":"{D2A2C929-9E11-4AE2-AF81-7CC5E2AF92FD}","altabd":"2018-02-15 15:33:22","created_user":"CATALEGFFCC","last_edited_date":"2023-05-15 07:25:12","last_edited_user":"CATALEGFFCC"},"geometry":{"type":"Point","coordinates":[-0.361373,39.4783635]}},
{"type":"Feature","properties":{"fid":22,"id":"60","nom_cataleg":"VT-010","id_stationarea":"VT-010a_01","estadoactual_cas":"En uso","estadoactual_val":"En ús","ficticio_cas":"Falso","ficticio_val":"Fals","tipo_acceso_cas":"Boca metro","tipo_acceso_val":"Boca metro","tipo_linea_cas":"Metro","tipo_linea_val":"Metro","globalid":"{5171E795-6F5F-4AFA-9B18-7DDEC6262E46}","altabd":"2018-02-15 15:33:22","created_user":"CATALEGFFCC","last_edited_date":"2023-05-15 07:25:12","last_edited_user":"CATALEGFFCC"},"geometry":{"type":"Point","coordinates":[-0.3620535,39.4785628]}},
{"type":"Feature","properties":{"fid":23,"id":"61","nom_cataleg":"VT-010","id_stationarea":"VT-010a_01","estadoactual_cas":"En uso","estadoactual_val":"En ús","ficticio_cas":"Falso","ficticio_val":"Fals","tipo_acceso_cas":"Boca metro","tipo_acceso_val":"Boca metro","tipo_linea_cas":"Metro","tipo_linea_val":"Metro","globalid":"{BAEAAED3-FD45-4187-8C3E-C693644DA4B4}","altabd":"2018-02-15 15:33:22","created_user":"CATALEGFFCC","last_edited_date":"2023-05-15 07:25:12","last_edited_user":"CATALEGFFCC"},"geometry":{"type":"Point","coordinates":[-0.3624136,39.4778222]}},
{"type":"Feature","properties":{"fid":24,"id":"62","nom_cataleg":"VT-010","id_stationarea":"VT-010a_01","estadoactual_cas":"En uso","estadoactual_val":"En ús","ficticio_cas":"Falso","ficticio_val":"Fals","tipo_acceso_cas":"Boca metro","tipo_acceso_val":"Boca metro","tipo_linea_cas":"Metro","tipo_linea_val":"Metro","globalid":"{E5C49909-0448-468C-A520-CF3C4610E3DC}","altabd":"2018-02-15 15:33:22","created_user":"CATALEGFFCC","last_edited_date":"2023-05-15 07:25:12","last_edited_user":"CATALEGFFCC"},"geometry":{"type":"Point","coordinates":[-0.3617386,39.477622]}},
{"type":"Feature","properties":{"fid":25,"id":"64","nom_cataleg":"VT-009","id_stationarea":"VT-009b_02","estadoactual_cas":"En uso","estadoactual_val":"En ús","ficticio_cas":"Falso","ficticio_val":"Fals","tipo_acceso_cas":"Boca metro","tipo_acceso_val":"Boca metro","tipo_linea_cas":"Metro","tipo_linea_val":"Metro","globalid":"{8DEA7271-E71E-44FB-8490-0A3C0655620D}","altabd":"2018-02-15 15:33:22","created_user":"CATALEGFFCC","last_edited_date":"2023-05-15 07:25:12","last_edited_user":"CATALEGFFCC"},"geometry":{"type":"Point","coordinates":[-0.3654908,39.4736024]}},
{"type":"Feature","properties":{"fid":26,"id":"66","nom_cataleg":"VT-009","id_stationarea":"VT-009b_02","estadoactual_cas":"En uso","estadoactual_val":"En ús","ficticio_cas":"Falso","ficticio_val":"Fals","tipo_acceso_cas":"Boca metro","tipo_acceso_val":"Boca metro","tipo_linea_cas":"Metro","tipo_linea_val":"Metro","globalid":"{71BC10C7-1C61-4C42-BB16-968C9CCEF4C8}","altabd":"2018-02-15 15:33:22","created_user":"CATALEGFFCC","last_edited_date":"2023-05-15 07:25:12","last_edited_user":"CATALEGFFCC"},"geometry":{"type":"Point","coordinates":[-0.3668827,39.4729241]}},
{"type":"Feature","properties":{"fid":27,"id":"67","nom_cataleg":"VT-009","id_stationarea":"VT-009b_02","estadoactual_cas":"En uso","estadoactual_val":"En ús","ficticio_cas":"Falso","ficticio_val":"Fals","tipo_acceso_cas":"Boca metro","tipo_acceso_val":"Boca metro","tipo_linea_cas":"Metro","tipo_linea_val":"Metro","globalid":"{849693E5-B922-4793-94AA-23FF2C3D07FD}","altabd":"2018-02-15 15:33:22","created_user":"CATALEGFFCC","last_edited_date":"2023-05-15 07:25:12","last_edited_user":"CATALEGFFCC"},"geometry":{"type":"Point","coordinates":[-0.365218,39.4732684]}},
{"type":"Feature","properties":{"fid":28,"id":"68","nom_cataleg":"VT-009","id_stationarea":"VT-009b_02","estadoactual_cas":"En uso","estadoactual_val":"En ús","ficticio_cas":"Falso","ficticio_val":"Fals","tipo_acceso_cas":"Boca metro","tipo_acceso_val":"Boca metro","tipo_linea_cas":"Metro","tipo_linea_val":"Metro","globalid":"{D432741D-DB77-4A91-9968-78D75A6A8070}","altabd":"2018-02-15 15:33:22","created_user":"CATALEGFFCC","last_edited_date":"2023-05-15 07:25:12","last_edited_user":"CATALEGFFCC"},"geometry":{"type":"Point","coordinates":[-0.3666123,39.472589]}},
{"type":"Feature","properties":{"fid":29,"id":"69","nom_cataleg":"VT-009","id_stationarea":"VT-009b_01","estadoactual_cas":"En uso","estadoactual_val":"En ús","ficticio_cas":"Falso","ficticio_val":"Fals","tipo_acceso_cas":"Boca metro","tipo_acceso_val":"Boca metro","tipo_linea_cas":"Metro","tipo_linea_val":"Metro","globalid":"{64C366F9-3C48-4CF5-91F2-96A29B2E4E91}","altabd":"2018-02-15 15:33:22","created_user":"CATALEGFFCC","last_edited_date":"2023-05-15 07:25:13","last_edited_user":"CATALEGFFCC"},"geometry":{"type":"Point","coordinates":[-0.3715776,39.4695122]}},
{"type":"Feature","properties":{"fid":30,"id":"71","nom_cataleg":"VT-009","id_stationarea":"VT-009b_01","estadoactual_cas":"En uso","estadoactual_val":"En ús","ficticio_cas":"Falso","ficticio_val":"Fals","tipo_acceso_cas":"Boca metro","tipo_acceso_val":"Boca metro","tipo_linea_cas":"Metro","tipo_linea_val":"Metro","globalid":"{E41C690C-39D4-4B0B-AA4C-5A79D4436606}","altabd":"2018-02-15 15:33:22","created_user":"CATALEGFFCC","last_edited_date":"2023-05-15 07:25:13","last_edited_user":"CATALEGFFCC"},"geometry":{"type":"Point","coordinates":[-0.3708912,39.470303]}},
{"type":"Feature","properties":{"fid":31,"id":"72","nom_cataleg":"VT-009","id_stationarea":"VT-009a_02","estadoactual_cas":"En uso","estadoactual_val":"En ús","ficticio_cas":"Falso","ficticio_val":"Fals","tipo_acceso_cas":"Boca metro","tipo_acceso_val":"Boca metro","tipo_linea_cas":"Metro","tipo_linea_val":"Metro","globalid":"{F3323F0B-AE6F-4A29-AFC0-B607ABC5F1AA}","altabd":"2018-02-15 15:33:22","created_user":"CATALEGFFCC","last_edited_date":"2023-05-15 07:25:13","last_edited_user":"CATALEGFFCC"},"geometry":{"type":"Point","coordinates":[-0.3759707,39.4674903]}},
{"type":"Feature","properties":{"fid":32,"id":"73","nom_cataleg":"VT-009","id_stationarea":"VT-009a_01","estadoactual_cas":"En uso","estadoactual_val":"En ús","ficticio_cas":"Falso","ficticio_val":"Fals","tipo_acceso_cas":"Boca metro","tipo_acceso_val":"Boca metro","tipo_linea_cas":"Metro","tipo_linea_val":"Metro","globalid":"{D71FE4C8-A43B-4810-A7E3-4224E2880CAB}","altabd":"2018-02-15 15:33:22","created_user":"CATALEGFFCC","last_edited_date":"2023-05-15 07:25:13","last_edited_user":"CATALEGFFCC"},"geometry":{"type":"Point","coordinates":[-0.3867479,39.4699296]}},
{"type":"Feature","properties":{"fid":33,"id":"74","nom_cataleg":"VT-009","id_stationarea":"VT-009a_01","estadoactual_cas":"En uso","estadoactual_val":"En ús","ficticio_cas":"Falso","ficticio_val":"Fals","tipo_acceso_cas":"Boca metro","tipo_acceso_val":"Boca metro","tipo_linea_cas":"Metro","tipo_linea_val":"Metro","globalid":"{46D8B00F-2D09-4339-9F85-6E3281152008}","altabd":"2018-02-15 15:33:22","created_user":"CATALEGFFCC","last_edited_date":"2023-05-15 07:25:13","last_edited_user":"CATALEGFFCC"},"geometry":{"type":"Point","coordinates":[-0.3871966,39.4700505]}},
{"type":"Feature","properties":{"fid":34,"id":"75","nom_cataleg":"VT-008","id_stationarea":"VT-008_09","estadoactual_cas":"En uso","estadoactual_val":"En ús","ficticio_cas":"Falso","ficticio_val":"Fals","tipo_acceso_cas":"Boca metro","tipo_acceso_val":"Boca metro","tipo_linea_cas":"Metro","tipo_linea_val":"Metro","globalid":"{401A38E8-B506-4CEA-ABA1-0B700F44A0EB}","altabd":"2018-02-15 15:33:22","created_user":"CATALEGFFCC","last_edited_date":"2023-05-15 07:25:13","last_edited_user":"CATALEGFFCC"},"geometry":{"type":"Point","coordinates":[-0.397589,39.4685312]}},
{"type":"Feature","properties":{"fid":35,"id":"76","nom_cataleg":"VT-008","id_stationarea":"VT-008_09","estadoactual_cas":"En uso","estadoactual_val":"En ús","ficticio_cas":"Falso","ficticio_val":"Fals","tipo_acceso_cas":"Boca metro","tipo_acceso_val":"Boca metro","tipo_linea_cas":"Metro","tipo_linea_val":"Metro","globalid":"{39AA2167-2A80-4EF9-A34B-2B80273BB76B}","altabd":"2018-02-15 15:33:22","created_user":"CATALEGFFCC","last_edited_date":"2023-05-15 07:25:13","last_edited_user":"CATALEGFFCC"},"geometry":{"type":"Point","coordinates":[-0.3975674,39.4681659]}},
{"type":"Feature","properties":{"fid":36,"id":"77","nom_cataleg":"VT-008","id_stationarea":"VT-008_09","estadoactual_cas":"En uso","estadoactual_val":"En ús","ficticio_cas":"Falso","ficticio_val":"Fals","tipo_acceso_cas":"Boca metro","tipo_acceso_val":"Boca metro","tipo_linea_cas":"Metro","tipo_linea_val":"Metro","globalid":"{FA858DBA-6C48-4A2D-ABF3-857C8C8B33E4}","altabd":"2018-02-15 15:33:22","created_user":"CATALEGFFCC","last_edited_date":"2023-05-15 07:25:13","last_edited_user":"CATALEGFFCC"},"geometry":{"type":"Point","coordinates":[-0.4002586,39.4686476]}},
{"type":"Feature","properties":{"fid":37,"id":"79","nom_cataleg":"VT-008","id_stationarea":"VT-008_09","estadoactual_cas":"En uso","estadoactual_val":"En ús","ficticio_cas":"Falso","ficticio_val":"Fals","tipo_acceso_cas":"Boca metro","tipo_acceso_val":"Boca metro","tipo_linea_cas":"Metro","tipo_linea_val":"Metro","globalid":"{796F8F18-D5B9-4527-B7FF-C7A5F885091C}","altabd":"2018-02-15 15:33:22","created_user":"CATALEGFFCC","last_edited_date":"2023-05-15 07:25:13","last_edited_user":"CATALEGFFCC"},"geometry":{"type":"Point","coordinates":[-0.4000989,39.4690618]}},
{"type":"Feature","properties":{"fid":38,"id":"80","nom_cataleg":"VT-008","id_stationarea":"VT-008_08","estadoactual_cas":"En uso","estadoactual_val":"En ús","ficticio_cas":"Falso","ficticio_val":"Fals","tipo_acceso_cas":"Boca metro","tipo_acceso_val":"Boca metro","tipo_linea_cas":"Metro","tipo_linea_val":"Metro","globalid":"{2E233738-323B-4358-9F6E-5734D9A1D5C2}","altabd":"2018-02-15 15:33:22","created_user":"CATALEGFFCC","last_edited_date":"2023-05-15 07:25:13","last_edited_user":"CATALEGFFCC"},"geometry":{"type":"Point","coordinates":[-0.406124,39.4703654]}},
{"type":"Feature","properties":{"fid":39,"id":"81","nom_cataleg":"VT-008","id_stationarea":"VT-008_08","estadoactual_cas":"En uso","estadoactual_val":"En ús","ficticio_cas":"Falso","ficticio_val":"Fals","tipo_acceso_cas":"Boca metro","tipo_acceso_val":"Boca metro","tipo_linea_cas":"Metro","tipo_linea_val":"Metro","globalid":"{EF019A3D-3BA1-4A70-B5CE-94BEEFF6ED1F}","altabd":"2018-02-15 15:33:22","created_user":"CATALEGFFCC","last_edited_date":"2023-05-15 07:25:13","last_edited_user":"CATALEGFFCC"},"geometry":{"type":"Point","coordinates":[-0.4061979,39.4707073]}},
{"type":"Feature","properties":{"fid":40,"id":"82","nom_cataleg":"VT-008","id_stationarea":"VT-008_08","estadoactual_cas":"En uso","estadoactual_val":"En ús","ficticio_cas":"Falso","ficticio_val":"Fals","tipo_acceso_cas":"Boca metro","tipo_acceso_val":"Boca metro","tipo_linea_cas":"Metro","tipo_linea_val":"Metro","globalid":"{99A01237-105F-4D54-A3FB-2B717335CD0B}","altabd":"2018-02-15 15:33:22","created_user":"CATALEGFFCC","last_edited_date":"2023-05-15 07:25:13","last_edited_user":"CATALEGFFCC"},"geometry":{"type":"Point","coordinates":[-0.4086204,39.4710672]}},
{"type":"Feature","properties":{"fid":41,"id":"84","nom_cataleg":"VT-008","id_stationarea":"VT-008_08","estadoactual_cas":"En uso","estadoactual_val":"En ús","ficticio_cas":"Falso","ficticio_val":"Fals","tipo_acceso_cas":"Boca metro","tipo_acceso_val":"Boca metro","tipo_linea_cas":"Metro","tipo_linea_val":"Metro","globalid":"{AAB68825-E289-413F-B2A4-60B9D6ED8884}","altabd":"2018-02-15 15:33:22","created_user":"CATALEGFFCC","last_edited_date":"2023-05-15 07:25:13","last_edited_user":"CATALEGFFCC"},"geometry":{"type":"Point","coordinates":[-0.4085527,39.4712547]}},
{"type":"Feature","properties":{"fid":42,"id":"86","nom_cataleg":"VT-006","id_stationarea":"VT-006_01","estadoactual_cas":"En uso","estadoactual_val":"En ús","ficticio_cas":"Falso","ficticio_val":"Fals","tipo_acceso_cas":"Boca metro","tipo_acceso_val":"Boca metro","tipo_linea_cas":"Metro","tipo_linea_val":"Metro","globalid":"{EC3CD2A1-9BD5-4233-97EB-B5AC69E0C9E1}","altabd":"2018-02-15 15:33:22","created_user":"CATALEGFFCC","last_edited_date":"2023-05-15 07:25:13","last_edited_user":"CATALEGFFCC"},"geometry":{"type":"Point","coordinates":[-0.3793919,39.4640039]}},
{"type":"Feature","properties":{"fid":43,"id":"87","nom_cataleg":"VT-006","id_stationarea":"VT-006_01","estadoactual_cas":"En uso","estadoactual_val":"En ús","ficticio_cas":"Falso","ficticio_val":"Fals","tipo_acceso_cas":"Boca metro","tipo_acceso_val":"Boca metro","tipo_linea_cas":"Metro","tipo_linea_val":"Metro","globalid":"{BF966B9E-27C6-4EC5-BB4A-AECCED598BF4}","altabd":"2018-02-15 15:33:22","created_user":"CATALEGFFCC","last_edited_date":"2023-05-15 07:25:13","last_edited_user":"CATALEGFFCC"},"geometry":{"type":"Point","coordinates":[-0.3796454,39.4631398]}},
{"type":"Feature","properties":{"fid":44,"id":"88","nom_cataleg":"VT-006","id_stationarea":"VT-006_01","estadoactual_cas":"En uso","estadoactual_val":"En ús","ficticio_cas":"Falso","ficticio_val":"Fals","tipo_acceso_cas":"Boca metro","tipo_acceso_val":"Boca metro","tipo_linea_cas":"Metro","tipo_linea_val":"Metro","globalid":"{9D43E5F7-902B-4127-9FAA-EF29065E4CB9}","altabd":"2018-02-15 15:33:22","created_user":"CATALEGFFCC","last_edited_date":"2023-05-15 07:25:13","last_edited_user":"CATALEGFFCC"},"geometry":{"type":"Point","coordinates":[-0.3798735,39.4624658]}},
{"type":"Feature","properties":{"fid":45,"id":"94","nom_cataleg":"VT-002","id_stationarea":"VT-002b_04","estadoactual_cas":"En uso","estadoactual_val":"En ús","ficticio_cas":"Falso","ficticio_val":"Fals","tipo_acceso_cas":"Boca metro","tipo_acceso_val":"Boca metro","tipo_linea_cas":"Metro","tipo_linea_val":"Metro","globalid":"{6ADCC433-DE07-4AB8-B910-EA581B6CCD16}","altabd":"2018-02-15 15:33:22","created_user":"CATALEGFFCC","last_edited_date":"2023-05-15 07:25:13","last_edited_user":"CATALEGFFCC"},"geometry":{"type":"Point","coordinates":[-0.3942921,39.4826384]}},
{"type":"Feature","properties":{"fid":46,"id":"96","nom_cataleg":"VT-002","id_stationarea":"VT-002b_04","estadoactual_cas":"En uso","estadoactual_val":"En ús","ficticio_cas":"Falso","ficticio_val":"Fals","tipo_acceso_cas":"Boca metro","tipo_acceso_val":"Boca metro","tipo_linea_cas":"Metro","tipo_linea_val":"Metro","globalid":"{1D6E0C74-7C60-400E-8CE6-1DC2A97FC7A7}","altabd":"2018-02-15 15:33:22","created_user":"CATALEGFFCC","last_edited_date":"2023-05-15 07:25:13","last_edited_user":"CATALEGFFCC"},"geometry":{"type":"Point","coordinates":[-0.3933912,39.482907]}},
{"type":"Feature","properties":{"fid":47,"id":"97","nom_cataleg":"VT-002","id_stationarea":"VT-002b_04","estadoactual_cas":"En uso","estadoactual_val":"En ús","ficticio_cas":"Falso","ficticio_val":"Fals","tipo_acceso_cas":"Boca metro","tipo_acceso_val":"Boca metro","tipo_linea_cas":"Metro","tipo_linea_val":"Metro","globalid":"{4A9FC158-90E6-4738-AE41-1005209CF51D}","altabd":"2018-02-15 15:33:22","created_user":"CATALEGFFCC","last_edited_date":"2023-05-15 07:25:13","last_edited_user":"CATALEGFFCC"},"geometry":{"type":"Point","coordinates":[-0.3951141,39.4837926]}},
{"type":"Feature","properties":{"fid":48,"id":"98","nom_cataleg":"VT-002","id_stationarea":"VT-002b_04","estadoactual_cas":"En uso","estadoactual_val":"En ús","ficticio_cas":"Falso","ficticio_val":"Fals","tipo_acceso_cas":"Boca metro","tipo_acceso_val":"Boca metro","tipo_linea_cas":"Metro","tipo_linea_val":"Metro","globalid":"{61BBBACA-CE8D-4BC6-AB4A-78E545A3BFA5}","altabd":"2018-02-15 15:33:22","created_user":"CATALEGFFCC","last_edited_date":"2023-05-15 07:25:13","last_edited_user":"CATALEGFFCC"},"geometry":{"type":"Point","coordinates":[-0.3945892,39.4842369]}},
{"type":"Feature","properties":{"fid":49,"id":"99","nom_cataleg":"VT-002","id_stationarea":"VT-002b_05","estadoactual_cas":"En uso","estadoactual_val":"En ús","ficticio_cas":"Falso","ficticio_val":"Fals","tipo_acceso_cas":"Boca metro","tipo_acceso_val":"Boca metro","tipo_linea_cas":"Metro","tipo_linea_val":"Metro","globalid":"{D7206C5C-3A13-4902-89AD-FADBE92FEA81}","altabd":"2018-02-15 15:33:22","created_user":"CATALEGFFCC","last_edited_date":"2023-05-15 07:25:14","last_edited_user":"CATALEGFFCC"},"geometry":{"type":"Point","coordinates":[-0.4001754,39.4906757]}},
{"type":"Feature","properties":{"fid":50,"id":"100","nom_cataleg":"VT-002","id_stationarea":"VT-002b_05","estadoactual_cas":"En uso","estadoactual_val":"En ús","ficticio_cas":"Falso","ficticio_val":"Fals","tipo_acceso_cas":"Boca metro","tipo_acceso_val":"Boca metro","tipo_linea_cas":"Metro","tipo_linea_val":"Metro","globalid":"{86555440-A839-4B4B-8C34-9A5943CA9083}","altabd":"2018-02-15 15:33:22","created_user":"CATALEGFFCC","last_edited_date":"2023-05-15 07:25:14","last_edited_user":"CATALEGFFCC"},"geometry":{"type":"Point","coordinates":[-0.3993181,39.4910343]}},
{"type":"Feature","properties":{"fid":51,"id":"101","nom_cataleg":"VT-002","id_stationarea":"VT-002b_01","estadoactual_cas":"En uso","estadoactual_val":"En ús","ficticio_cas":"Falso","ficticio_val":"Fals","tipo_acceso_cas":"Boca metro","tipo_acceso_val":"Boca metro","tipo_linea_cas":"Metro","tipo_linea_val":"Metro","globalid":"{8E3C3EF3-F1B0-4C3A-9E60-C6537DB0719C}","altabd":"2018-02-15 15:33:22","created_user":"CATALEGFFCC","last_edited_date":"2023-05-15 07:25:14","last_edited_user":"CATALEGFFCC"},"geometry":{"type":"Point","coordinates":[-0.3816238,39.4661514]}},
{"type":"Feature","properties":{"fid":52,"id":"103","nom_cataleg":"VT-002","id_stationarea":"VT-002b_01","estadoactual_cas":"En uso","estadoactual_val":"En ús","ficticio_cas":"Falso","ficticio_val":"Fals","tipo_acceso_cas":"Boca metro","tipo_acceso_val":"Boca metro","tipo_linea_cas":"Metro","tipo_linea_val":"Metro","globalid":"{6A0BBECA-9CAB-43F5-82B3-7004947B690C}","altabd":"2018-02-15 15:33:22","created_user":"CATALEGFFCC","last_edited_date":"2023-05-15 07:25:14","last_edited_user":"CATALEGFFCC"},"geometry":{"type":"Point","coordinates":[-0.3822219,39.4657386]}},
{"type":"Feature","properties":{"fid":53,"id":"105","nom_cataleg":"VT-002","id_stationarea":"VT-002b_02","estadoactual_cas":"En uso","estadoactual_val":"En ús","ficticio_cas":"Falso","ficticio_val":"Fals","tipo_acceso_cas":"Boca metro","tipo_acceso_val":"Boca metro","tipo_linea_cas":"Metro","tipo_linea_val":"Metro","globalid":"{97FC1F29-47AA-4C1D-957F-9FA21CB2F9F0}","altabd":"2018-02-15 15:33:22","created_user":"CATALEGFFCC","last_edited_date":"2023-05-15 07:25:14","last_edited_user":"CATALEGFFCC"},"geometry":{"type":"Point","coordinates":[-0.3852627,39.4706907]}},
{"type":"Feature","properties":{"fid":54,"id":"106","nom_cataleg":"VT-002","id_stationarea":"VT-002b_02","estadoactual_cas":"En uso","estadoactual_val":"En ús","ficticio_cas":"Falso","ficticio_val":"Fals","tipo_acceso_cas":"Boca metro","tipo_acceso_val":"Boca metro","tipo_linea_cas":"Metro","tipo_linea_val":"Metro","globalid":"{34E9C2CA-626C-46EF-B4E2-2AEB3DF2D9C3}","altabd":"2018-02-15 15:33:22","created_user":"CATALEGFFCC","last_edited_date":"2023-05-15 07:25:14","last_edited_user":"CATALEGFFCC"},"geometry":{"type":"Point","coordinates":[-0.384056,39.4695748]}},
{"type":"Feature","properties":{"fid":55,"id":"107","nom_cataleg":"VT-002","id_stationarea":"VT-002b_02","estadoactual_cas":"En uso","estadoactual_val":"En ús","ficticio_cas":"Falso","ficticio_val":"Fals","tipo_acceso_cas":"Boca metro","tipo_acceso_val":"Boca metro","tipo_linea_cas":"Metro","tipo_linea_val":"Metro","globalid":"{C01E8FCB-11ED-4DBC-B04A-8B3FA9C8878C}","altabd":"2018-02-15 15:33:22","created_user":"CATALEGFFCC","last_edited_date":"2023-05-15 07:25:14","last_edited_user":"CATALEGFFCC"},"geometry":{"type":"Point","coordinates":[-0.3848963,39.4696304]}},
{"type":"Feature","properties":{"fid":56,"id":"114","nom_cataleg":"VT-002","id_stationarea":"VT-002a_08","estadoactual_cas":"En uso","estadoactual_val":"En ús","ficticio_cas":"Falso","ficticio_val":"Fals","tipo_acceso_cas":"Boca metro","tipo_acceso_val":"Boca metro","tipo_linea_cas":"Metro","tipo_linea_val":"Metro","globalid":"{8E4AB384-F5E1-44EF-8404-1BA8C2E19640}","altabd":"2018-02-15 15:33:22","created_user":"CATALEGFFCC","last_edited_date":"2023-05-15 07:25:14","last_edited_user":"CATALEGFFCC"},"geometry":{"type":"Point","coordinates":[-0.3847889,39.4592093]}},
{"type":"Feature","properties":{"fid":57,"id":"115","nom_cataleg":"VT-002","id_stationarea":"VT-002a_08","estadoactual_cas":"En uso","estadoactual_val":"En ús","ficticio_cas":"Falso","ficticio_val":"Fals","tipo_acceso_cas":"Boca metro","tipo_acceso_val":"Boca metro","tipo_linea_cas":"Metro","tipo_linea_val":"Metro","globalid":"{4B9A5BA7-2814-463D-BF6E-5420D4F6482E}","altabd":"2018-02-15 15:33:22","created_user":"CATALEGFFCC","last_edited_date":"2023-05-15 07:25:14","last_edited_user":"CATALEGFFCC"},"geometry":{"type":"Point","coordinates":[-0.3845204,39.4595362]}},
{"type":"Feature","properties":{"fid":58,"id":"117","nom_cataleg":"VT-002","id_stationarea":"VT-002a_06","estadoactual_cas":"En uso","estadoactual_val":"En ús","ficticio_cas":"Falso","ficticio_val":"Fals","tipo_acceso_cas":"Boca metro","tipo_acceso_val":"Boca metro","tipo_linea_cas":"Metro","tipo_linea_val":"Metro","globalid":"{0C70AEE9-805F-478C-B5AD-D8BB0409C559}","altabd":"2018-02-15 15:33:22","created_user":"CATALEGFFCC","last_edited_date":"2023-05-15 07:25:14","last_edited_user":"CATALEGFFCC"},"geometry":{"type":"Point","coordinates":[-0.3971147,39.4553501]}},
{"type":"Feature","properties":{"fid":59,"id":"118","nom_cataleg":"VT-002","id_stationarea":"VT-002a_06","estadoactual_cas":"En uso","estadoactual_val":"En ús","ficticio_cas":"Falso","ficticio_val":"Fals","tipo_acceso_cas":"Boca metro","tipo_acceso_val":"Boca metro","tipo_linea_cas":"Metro","tipo_linea_val":"Metro","globalid":"{1E9EC56F-A19A-4FED-9C3A-C5FF8FB80DFE}","altabd":"2018-02-15 15:33:22","created_user":"CATALEGFFCC","last_edited_date":"2023-05-15 07:25:14","last_edited_user":"CATALEGFFCC"},"geometry":{"type":"Point","coordinates":[-0.3984004,39.4544013]}},
{"type":"Feature","properties":{"fid":60,"id":"119","nom_cataleg":"VT-002","id_stationarea":"VT-002a_06","estadoactual_cas":"En uso","estadoactual_val":"En ús","ficticio_cas":"Falso","ficticio_val":"Fals","tipo_acceso_cas":"Boca metro","tipo_acceso_val":"Boca metro","tipo_linea_cas":"Metro","tipo_linea_val":"Metro","globalid":"{115B1FDB-B876-415F-9AC6-06776F067725}","altabd":"2018-02-15 15:33:22","created_user":"CATALEGFFCC","last_edited_date":"2023-05-15 07:25:14","last_edited_user":"CATALEGFFCC"},"geometry":{"type":"Point","coordinates":[-0.3985867,39.4545128]}},
{"type":"Feature","properties":{"fid":61,"id":"120","nom_cataleg":"VT-002","id_stationarea":"VT-002a_07","estadoactual_cas":"En uso","estadoactual_val":"En ús","ficticio_cas":"Falso","ficticio_val":"Fals","tipo_acceso_cas":"Boca metro","tipo_acceso_val":"Boca metro","tipo_linea_cas":"Metro","tipo_linea_val":"Metro","globalid":"{0349985D-BF5D-43F8-9A32-2DC5CE930288}","altabd":"2018-02-15 15:33:22","created_user":"CATALEGFFCC","last_edited_date":"2023-05-15 07:25:14","last_edited_user":"CATALEGFFCC"},"geometry":{"type":"Point","coordinates":[-0.3904971,39.4560025]}},
{"type":"Feature","properties":{"fid":62,"id":"122","nom_cataleg":"VT-002","id_stationarea":"VT-002a_07","estadoactual_cas":"En uso","estadoactual_val":"En ús","ficticio_cas":"Falso","ficticio_val":"Fals","tipo_acceso_cas":"Boca metro","tipo_acceso_val":"Boca metro","tipo_linea_cas":"Metro","tipo_linea_val":"Metro","globalid":"{2A125B60-75DE-47FD-B64C-714DFF05E35B}","altabd":"2018-02-15 15:33:22","created_user":"CATALEGFFCC","last_edited_date":"2023-05-15 07:25:14","last_edited_user":"CATALEGFFCC"},"geometry":{"type":"Point","coordinates":[-0.3903029,39.4567144]}},
{"type":"Feature","properties":{"fid":63,"id":"129","nom_cataleg":"VT-010","id_stationarea":"VT-010a_04","estadoactual_cas":"En uso","estadoactual_val":"En ús","ficticio_cas":"Falso","ficticio_val":"Fals","tipo_acceso_cas":"Boca metro","tipo_acceso_val":"Boca metro","tipo_linea_cas":"Metro","tipo_linea_val":"Metro","globalid":"{4C04FBEB-C279-4274-8B34-BB0BED3EAE8B}","altabd":"2018-02-15 15:33:22","created_user":"CATALEGFFCC","last_edited_date":"2023-05-15 07:25:41","last_edited_user":"CATALEGFFCC"},"geometry":{"type":"Point","coordinates":[-0.3554397,39.4957915]}},
{"type":"Feature","properties":{"fid":64,"id":"131","nom_cataleg":"VT-010","id_stationarea":"VT-010a_04","estadoactual_cas":"En uso","estadoactual_val":"En ús","ficticio_cas":"Falso","ficticio_val":"Fals","tipo_acceso_cas":"Boca metro","tipo_acceso_val":"Boca metro","tipo_linea_cas":"Metro","tipo_linea_val":"Metro","globalid":"{089D1C41-FC3E-497F-A879-C2086071D17B}","altabd":"2018-02-15 15:33:22","created_user":"CATALEGFFCC","last_edited_date":"2023-05-15 07:25:41","last_edited_user":"CATALEGFFCC"},"geometry":{"type":"Point","coordinates":[-0.3556703,39.4955072]}},
{"type":"Feature","properties":{"fid":65,"id":"132","nom_cataleg":"VT-010","id_stationarea":"VT-010a_05","estadoactual_cas":"En uso","estadoactual_val":"En ús","ficticio_cas":"Falso","ficticio_val":"Fals","tipo_acceso_cas":"Boca metro","tipo_acceso_val":"Boca metro","tipo_linea_cas":"Metro","tipo_linea_val":"Metro","globalid":"{66AAE555-6E95-4943-AF09-30864A05B22C}","altabd":"2018-02-15 15:33:22","created_user":"CATALEGFFCC","last_edited_date":"2023-05-15 07:25:41","last_edited_user":"CATALEGFFCC"},"geometry":{"type":"Point","coordinates":[-0.3522405,39.5005931]}},
{"type":"Feature","properties":{"fid":66,"id":"134","nom_cataleg":"VT-010","id_stationarea":"VT-010a_02","estadoactual_cas":"En uso","estadoactual_val":"En ús","ficticio_cas":"Falso","ficticio_val":"Fals","tipo_acceso_cas":"Boca metro","tipo_acceso_val":"Boca metro","tipo_linea_cas":"Metro","tipo_linea_val":"Metro","globalid":"{1C31EDAF-9152-4335-97B2-66B704EC369F}","altabd":"2018-02-15 15:33:22","created_user":"CATALEGFFCC","last_edited_date":"2023-05-15 07:25:14","last_edited_user":"CATALEGFFCC"},"geometry":{"type":"Point","coordinates":[-0.3619553,39.4847748]}},
{"type":"Feature","properties":{"fid":67,"id":"135","nom_cataleg":"VT-010","id_stationarea":"VT-010a_02","estadoactual_cas":"En uso","estadoactual_val":"En ús","ficticio_cas":"Falso","ficticio_val":"Fals","tipo_acceso_cas":"Boca metro","tipo_acceso_val":"Boca metro","tipo_linea_cas":"Metro","tipo_linea_val":"Metro","globalid":"{AD6B415A-BC11-43E2-8BF3-797B0DA9B30C}","altabd":"2018-02-15 15:33:22","created_user":"CATALEGFFCC","last_edited_date":"2023-05-15 07:25:14","last_edited_user":"CATALEGFFCC"},"geometry":{"type":"Point","coordinates":[-0.3620385,39.4846246]}},
{"type":"Feature","properties":{"fid":68,"id":"136","nom_cataleg":"VT-010","id_stationarea":"VT-010a_02","estadoactual_cas":"En uso","estadoactual_val":"En ús","ficticio_cas":"Falso","ficticio_val":"Fals","tipo_acceso_cas":"Boca metro","tipo_acceso_val":"Boca metro","tipo_linea_cas":"Metro","tipo_linea_val":"Metro","globalid":"{4B99CCA3-748F-4639-A4A7-122750562101}","altabd":"2018-02-15 15:33:22","created_user":"CATALEGFFCC","last_edited_date":"2023-05-15 07:25:14","last_edited_user":"CATALEGFFCC"},"geometry":{"type":"Point","coordinates":[-0.3615946,39.4857834]}},
{"type":"Feature","properties":{"fid":69,"id":"137","nom_cataleg":"VT-010","id_stationarea":"VT-010a_02","estadoactual_cas":"En uso","estadoactual_val":"En ús","ficticio_cas":"Falso","ficticio_val":"Fals","tipo_acceso_cas":"Boca metro","tipo_acceso_val":"Boca metro","tipo_linea_cas":"Metro","tipo_linea_val":"Metro","globalid":"{A1109DBF-B7FB-40DF-86D5-574B2FE433BF}","altabd":"2018-02-15 15:33:22","created_user":"CATALEGFFCC","last_edited_date":"2023-05-15 07:25:14","last_edited_user":"CATALEGFFCC"},"geometry":{"type":"Point","coordinates":[-0.3626767,39.4849473]}},
{"type":"Feature","properties":{"fid":70,"id":"138","nom_cataleg":"VT-010","id_stationarea":"VT-010a_02","estadoactual_cas":"En uso","estadoactual_val":"En ús","ficticio_cas":"Falso","ficticio_val":"Fals","tipo_acceso_cas":"Boca metro","tipo_acceso_val":"Boca metro","tipo_linea_cas":"Metro","tipo_linea_val":"Metro","globalid":"{E8ADA81C-C349-4F5D-9651-FE3CDF16221B}","altabd":"2018-02-15 15:33:22","created_user":"CATALEGFFCC","last_edited_date":"2023-05-15 07:25:14","last_edited_user":"CATALEGFFCC"},"geometry":{"type":"Point","coordinates":[-0.3627225,39.4848644]}},
{"type":"Feature","properties":{"fid":71,"id":"142","nom_cataleg":"VT-010","id_stationarea":"VT-010a_05","estadoactual_cas":"En uso","estadoactual_val":"En ús","ficticio_cas":"Falso","ficticio_val":"Fals","tipo_acceso_cas":"Boca metro","tipo_acceso_val":"Boca metro","tipo_linea_cas":"Metro","tipo_linea_val":"Metro","globalid":"{A12A7AEE-0913-4AF7-932D-569763743850}","altabd":"2018-02-15 15:33:22","created_user":"CATALEGFFCC","last_edited_date":"2023-05-15 07:25:41","last_edited_user":"CATALEGFFCC"},"geometry":{"type":"Point","coordinates":[-0.3523621,39.5009913]}},
{"type":"Feature","properties":{"fid":72,"id":"147","nom_cataleg":"VT-002","id_stationarea":"VT-002b_06","estadoactual_cas":"En uso","estadoactual_val":"En ús","ficticio_cas":"Falso","ficticio_val":"Fals","tipo_acceso_cas":"Boca metro","tipo_acceso_val":"Boca metro","tipo_linea_cas":"Metro","tipo_linea_val":"Metro","globalid":"{9D61B60C-B0E0-4115-ADCE-278D51249220}","altabd":"2018-02-15 15:33:22","created_user":"CATALEGFFCC","last_edited_date":"2023-05-15 07:26:56","last_edited_user":"CATALEGFFCC"},"geometry":{"type":"Point","coordinates":[-0.4018221,39.4993597]}},
{"type":"Feature","properties":{"fid":73,"id":"150","nom_cataleg":"VT-002","id_stationarea":"VT-002b_06","estadoactual_cas":"En uso","estadoactual_val":"En ús","ficticio_cas":"Falso","ficticio_val":"Fals","tipo_acceso_cas":"Boca metro","tipo_acceso_val":"Boca metro","tipo_linea_cas":"Metro","tipo_linea_val":"Metro","globalid":"{252A1F1E-A9A5-4699-8D16-518CBCEBE0BD}","altabd":"2018-02-15 15:33:22","created_user":"CATALEGFFCC","last_edited_date":"2023-05-15 07:26:56","last_edited_user":"CATALEGFFCC"},"geometry":{"type":"Point","coordinates":[-0.4019974,39.4992672]}},
{"type":"Feature","properties":{"fid":74,"id":"152","nom_cataleg":"VT-011","id_stationarea":"VT-011_01","estadoactual_cas":"En uso","estadoactual_val":"En ús","ficticio_cas":"Falso","ficticio_val":"Fals","tipo_acceso_cas":"Boca metro","tipo_acceso_val":"Boca metro","tipo_linea_cas":"Metro","tipo_linea_val":"Metro","globalid":"{67579DDE-F6D7-4F0F-BF3D-C5CF54DB3B7B}","altabd":"2018-02-15 15:33:22","created_user":"CATALEGFFCC","last_edited_date":"2023-05-15 07:25:14","last_edited_user":"CATALEGFFCC"},"geometry":{"type":"Point","coordinates":[-0.3577735,39.4727319]}},
{"type":"Feature","properties":{"fid":75,"id":"153","nom_cataleg":"VT-011","id_stationarea":"VT-011_01","estadoactual_cas":"En uso","estadoactual_val":"En ús","ficticio_cas":"Falso","ficticio_val":"Fals","tipo_acceso_cas":"Boca metro","tipo_acceso_val":"Boca metro","tipo_linea_cas":"Metro","tipo_linea_val":"Metro","globalid":"{B52872AF-BA40-49E2-8D33-1C69CE682521}","altabd":"2018-02-15 15:33:22","created_user":"CATALEGFFCC","last_edited_date":"2023-05-15 07:25:14","last_edited_user":"CATALEGFFCC"},"geometry":{"type":"Point","coordinates":[-0.3572929,39.4726314]}},
{"type":"Feature","properties":{"fid":76,"id":"154","nom_cataleg":"VT-011","id_stationarea":"VT-011_01","estadoactual_cas":"En uso","estadoactual_val":"En ús","ficticio_cas":"Falso","ficticio_val":"Fals","tipo_acceso_cas":"Boca metro","tipo_acceso_val":"Boca metro","tipo_linea_cas":"Metro","tipo_linea_val":"Metro","globalid":"{1754CC2B-3A37-477C-9E6B-13D6D7EFF960}","altabd":"2018-02-15 15:33:22","created_user":"CATALEGFFCC","last_edited_date":"2023-05-15 07:25:14","last_edited_user":"CATALEGFFCC"},"geometry":{"type":"Point","coordinates":[-0.3575451,39.4721178]}},
{"type":"Feature","properties":{"fid":77,"id":"162","nom_cataleg":"VT-004","id_stationarea":"VT-004_01","estadoactual_cas":"En uso","estadoactual_val":"En ús","ficticio_cas":"Falso","ficticio_val":"Fals","tipo_acceso_cas":"Boca metro","tipo_acceso_val":"Boca metro","tipo_linea_cas":"Metro","tipo_linea_val":"Metro","globalid":"{273E8262-0121-4C1C-9E32-3FDB452C6F17}","altabd":"2018-02-15 15:33:22","created_user":"CATALEGFFCC","last_edited_date":"2023-05-15 07:27:34","last_edited_user":"CATALEGFFCC"},"geometry":{"type":"Point","coordinates":[-0.4727573,39.4318145]}},
{"type":"Feature","properties":{"fid":78,"id":"163","nom_cataleg":"VT-004","id_stationarea":"VT-004_01","estadoactual_cas":"En uso","estadoactual_val":"En ús","ficticio_cas":"Falso","ficticio_val":"Fals","tipo_acceso_cas":"Boca metro","tipo_acceso_val":"Boca metro","tipo_linea_cas":"Metro","tipo_linea_val":"Metro","globalid":"{EB81D6C3-FCC2-4FE7-8FD0-B577F116748E}","altabd":"2018-02-15 15:33:22","created_user":"CATALEGFFCC","last_edited_date":"2023-05-15 07:27:34","last_edited_user":"CATALEGFFCC"},"geometry":{"type":"Point","coordinates":[-0.4725258,39.4315992]}},
{"type":"Feature","properties":{"fid":79,"id":"164","nom_cataleg":"VT-004","id_stationarea":"VT-004_01","estadoactual_cas":"En uso","estadoactual_val":"En ús","ficticio_cas":"Falso","ficticio_val":"Fals","tipo_acceso_cas":"Boca metro","tipo_acceso_val":"Boca metro","tipo_linea_cas":"Metro","tipo_linea_val":"Metro","globalid":"{DF6E9ACC-88FC-42E0-B056-6699CFEC7FFC}","altabd":"2018-02-15 15:33:22","created_user":"CATALEGFFCC","last_edited_date":"2023-05-15 07:27:34","last_edited_user":"CATALEGFFCC"},"geometry":{"type":"Point","coordinates":[-0.4718565,39.430762]}},
{"type":"Feature","properties":{"fid":80,"id":"165","nom_cataleg":"VT-004","id_stationarea":"VT-004_01","estadoactual_cas":"En uso","estadoactual_val":"En ús","ficticio_cas":"Falso","ficticio_val":"Fals","tipo_acceso_cas":"Boca metro","tipo_acceso_val":"Boca metro","tipo_linea_cas":"Metro","tipo_linea_val":"Metro","globalid":"{CEB49A01-7803-40A9-9966-75712E9BDD68}","altabd":"2018-02-15 15:33:22","created_user":"CATALEGFFCC","last_edited_date":"2023-05-15 07:27:34","last_edited_user":"CATALEGFFCC"},"geometry":{"type":"Point","coordinates":[-0.4715875,39.4309372]}},
{"type":"Feature","properties":{"fid":81,"id":"253","nom_cataleg":"VT-008","id_stationarea":"VT-008_03","estadoactual_cas":"En uso","estadoactual_val":"En ús","ficticio_cas":"Falso","ficticio_val":"Fals","tipo_acceso_cas":"Boca metro","tipo_acceso_val":"Boca metro","tipo_linea_cas":"Metro","tipo_linea_val":"Metro","globalid":"{AE12B955-E9F6-4A42-A826-5E8811B07341}","altabd":"2018-02-15 15:33:22","created_user":"CATALEGFFCC","last_edited_date":"2023-05-15 07:42:34","last_edited_user":"CATALEGFFCC"},"geometry":{"type":"Point","coordinates":[-0.4512839,39.4856491]}},
{"type":"Feature","properties":{"fid":82,"id":"255","nom_cataleg":"VT-008","id_stationarea":"VT-008_03","estadoactual_cas":"En uso","estadoactual_val":"En ús","ficticio_cas":"Falso","ficticio_val":"Fals","tipo_acceso_cas":"Boca metro","tipo_acceso_val":"Boca metro","tipo_linea_cas":"Metro","tipo_linea_val":"Metro","globalid":"{4B9AE91D-B510-4EB0-9BEC-634F20443CEF}","altabd":"2018-02-15 15:33:22","created_user":"CATALEGFFCC","last_edited_date":"2023-05-15 07:42:34","last_edited_user":"CATALEGFFCC"},"geometry":{"type":"Point","coordinates":[-0.4497213,39.4850001]}},
{"type":"Feature","properties":{"fid":83,"id":"257","nom_cataleg":"VT-008","id_stationarea":"VT-008_01","estadoactual_cas":"En uso","estadoactual_val":"En ús","ficticio_cas":"Falso","ficticio_val":"Fals","tipo_acceso_cas":"Boca metro","tipo_acceso_val":"Boca metro","tipo_linea_cas":"Metro","tipo_linea_val":"Metro","globalid":"{C2A5E7F3-107A-48F7-8B08-AB9443C363A8}","altabd":"2018-02-15 15:33:22","created_user":"CATALEGFFCC","last_edited_date":"2023-05-15 07:42:34","last_edited_user":"CATALEGFFCC"},"geometry":{"type":"Point","coordinates":[-0.4673575,39.4927324]}},
{"type":"Feature","properties":{"fid":84,"id":"259","nom_cataleg":"VT-008","id_stationarea":"VT-008_02","estadoactual_cas":"En uso","estadoactual_val":"En ús","ficticio_cas":"Falso","ficticio_val":"Fals","tipo_acceso_cas":"Boca metro","tipo_acceso_val":"Boca metro","tipo_linea_cas":"Metro","tipo_linea_val":"Metro","globalid":"{1F7AE6E9-F222-45AD-9E3A-21C56F22BE7F}","altabd":"2018-02-15 15:33:22","created_user":"CATALEGFFCC","last_edited_date":"2023-05-15 07:42:34","last_edited_user":"CATALEGFFCC"},"geometry":{"type":"Point","coordinates":[-0.4593912,39.4895232]}},
{"type":"Feature","properties":{"fid":85,"id":"269","nom_cataleg":"VT-008","id_stationarea":"VT-008_05","estadoactual_cas":"En uso","estadoactual_val":"En ús","ficticio_cas":"Falso","ficticio_val":"Fals","tipo_acceso_cas":"Boca metro","tipo_acceso_val":"Boca metro","tipo_linea_cas":"Metro","tipo_linea_val":"Metro","globalid":"{F028334C-93FB-44A5-BEC6-55CFF24124AC}","altabd":"2018-02-15 15:33:22","created_user":"CATALEGFFCC","last_edited_date":"2023-05-15 07:42:54","last_edited_user":"CATALEGFFCC"},"geometry":{"type":"Point","coordinates":[-0.433419,39.4776884]}},
{"type":"Feature","properties":{"fid":86,"id":"271","nom_cataleg":"VT-008","id_stationarea":"VT-008_04","estadoactual_cas":"En uso","estadoactual_val":"En ús","ficticio_cas":"Falso","ficticio_val":"Fals","tipo_acceso_cas":"Boca metro","tipo_acceso_val":"Boca metro","tipo_linea_cas":"Metro","tipo_linea_val":"Metro","globalid":"{A94F04AF-1ECE-4A15-9CC3-FA42CBBA38DF}","altabd":"2018-02-15 15:33:22","created_user":"CATALEGFFCC","last_edited_date":"2023-05-15 07:42:54","last_edited_user":"CATALEGFFCC"},"geometry":{"type":"Point","coordinates":[-0.4421129,39.4809723]}},
{"type":"Feature","properties":{"fid":87,"id":"274","nom_cataleg":"VT-008","id_stationarea":"VT-008_07","estadoactual_cas":"En uso","estadoactual_val":"En ús","ficticio_cas":"Falso","ficticio_val":"Fals","tipo_acceso_cas":"Boca metro","tipo_acceso_val":"Boca metro","tipo_linea_cas":"Metro","tipo_linea_val":"Metro","globalid":"{4435A353-B5AB-42D9-ABD3-76178BF44959}","altabd":"2018-02-15 15:33:22","created_user":"CATALEGFFCC","last_edited_date":"2023-05-15 07:44:21","last_edited_user":"CATALEGFFCC"},"geometry":{"type":"Point","coordinates":[-0.4160606,39.4733024]}},
{"type":"Feature","properties":{"fid":88,"id":"276","nom_cataleg":"VT-008","id_stationarea":"VT-008_07","estadoactual_cas":"En uso","estadoactual_val":"En ús","ficticio_cas":"Falso","ficticio_val":"Fals","tipo_acceso_cas":"Boca metro","tipo_acceso_val":"Boca metro","tipo_linea_cas":"Metro","tipo_linea_val":"Metro","globalid":"{D8DF0BDF-5D66-4180-A3A1-58BA9B3DCCB3}","altabd":"2018-02-15 15:33:22","created_user":"CATALEGFFCC","last_edited_date":"2023-05-15 07:44:21","last_edited_user":"CATALEGFFCC"},"geometry":{"type":"Point","coordinates":[-0.4181852,39.4740215]}},
{"type":"Feature","properties":{"fid":89,"id":"278","nom_cataleg":"VT-008","id_stationarea":"VT-008_06","estadoactual_cas":"En uso","estadoactual_val":"En ús","ficticio_cas":"Falso","ficticio_val":"Fals","tipo_acceso_cas":"Boca metro","tipo_acceso_val":"Boca metro","tipo_linea_cas":"Metro","tipo_linea_val":"Metro","globalid":"{D3A8CCEB-1851-4EEE-81B7-13F8416A2208}","altabd":"2018-02-15 15:33:22","created_user":"CATALEGFFCC","last_edited_date":"2023-05-15 07:44:21","last_edited_user":"CATALEGFFCC"},"geometry":{"type":"Point","coordinates":[-0.4219192,39.4752015]}},
{"type":"Feature","properties":{"fid":90,"id":"279","nom_cataleg":"VT-008","id_stationarea":"VT-008_06","estadoactual_cas":"En uso","estadoactual_val":"En ús","ficticio_cas":"Falso","ficticio_val":"Fals","tipo_acceso_cas":"Boca metro","tipo_acceso_val":"Boca metro","tipo_linea_cas":"Metro","tipo_linea_val":"Metro","globalid":"{2D979B41-51D1-4923-BC03-EC5B971A1762}","altabd":"2018-02-15 15:33:22","created_user":"CATALEGFFCC","last_edited_date":"2023-05-15 07:44:21","last_edited_user":"CATALEGFFCC"},"geometry":{"type":"Point","coordinates":[-0.423841,39.4758221]}},
{"type":"Feature","properties":{"fid":91,"id":"46","nom_cataleg":"VT-011","id_stationarea":"VT-011_04","estadoactual_cas":"En uso","estadoactual_val":"En ús","ficticio_cas":"Falso","ficticio_val":"Fals","tipo_acceso_cas":"Boca metro","tipo_acceso_val":"Boca metro","tipo_linea_cas":"Metro + Tranvía","tipo_linea_val":"Metro + Tramvia","globalid":"{C3B0847E-130A-41EA-AE90-A5E9BAC83820}","altabd":"2018-02-15 15:33:22","created_user":"CATALEGFFCC","last_edited_date":"2023-05-15 07:25:12","last_edited_user":"CATALEGFFCC"},"geometry":{"type":"Point","coordinates":[-0.3375362,39.464604]}},
{"type":"Feature","properties":{"fid":92,"id":"48","nom_cataleg":"VT-011","id_stationarea":"VT-011_04","estadoactual_cas":"En uso","estadoactual_val":"En ús","ficticio_cas":"Falso","ficticio_val":"Fals","tipo_acceso_cas":"Boca metro","tipo_acceso_val":"Boca metro","tipo_linea_cas":"Metro + Tranvía","tipo_linea_val":"Metro + Tramvia","globalid":"{144CB94D-971E-4039-B048-A15281A57E15}","altabd":"2018-02-15 15:33:22","created_user":"CATALEGFFCC","last_edited_date":"2023-05-15 07:25:12","last_edited_user":"CATALEGFFCC"},"geometry":{"type":"Point","coordinates":[-0.3376059,39.4644598]}},
{"type":"Feature","properties":{"fid":93,"id":"32","nom_cataleg":"VT-029","id_stationarea":"VT-029_03","estadoactual_cas":"En uso","estadoactual_val":"En ús","ficticio_cas":"Falso","ficticio_val":"Fals","tipo_acceso_cas":"Ascensor","tipo_acceso_val":"Ascensor","tipo_linea_cas":"Tranvía","tipo_linea_val":"Tramvia","globalid":"{C973EE57-D47D-47C4-95C2-AB1A5108C23F}","altabd":"2018-02-15 15:33:22","created_user":"CATALEGFFCC","last_edited_date":"2023-05-15 07:25:12","last_edited_user":"CATALEGFFCC"},"geometry":{"type":"Point","coordinates":[-0.3652904,39.4597554]}},
{"type":"Feature","properties":{"fid":94,"id":"37","nom_cataleg":"VT-029","id_stationarea":"VT-029_01","estadoactual_cas":"En uso","estadoactual_val":"En ús","ficticio_cas":"Falso","ficticio_val":"Fals","tipo_acceso_cas":"Ascensor","tipo_acceso_val":"Ascensor","tipo_linea_cas":"Tranvía","tipo_linea_val":"Tramvia","globalid":"{A9C9DAB4-1721-4AC6-AD2E-FCC70392030F}","altabd":"2018-02-15 15:33:22","created_user":"CATALEGFFCC","last_edited_date":"2023-05-15 07:25:12","last_edited_user":"CATALEGFFCC"},"geometry":{"type":"Point","coordinates":[-0.3773144,39.4649491]}},
{"type":"Feature","properties":{"fid":95,"id":"39","nom_cataleg":"VT-029","id_stationarea":"VT-029_02","estadoactual_cas":"En uso","estadoactual_val":"En ús","ficticio_cas":"Falso","ficticio_val":"Fals","tipo_acceso_cas":"Ascensor","tipo_acceso_val":"Ascensor","tipo_linea_cas":"Tranvía","tipo_linea_val":"Tramvia","globalid":"{A2EAEFBD-8D06-4B81-B907-9CF4C01765DA}","altabd":"2018-02-15 15:33:22","created_user":"CATALEGFFCC","last_edited_date":"2023-05-15 07:25:12","last_edited_user":"CATALEGFFCC"},"geometry":{"type":"Point","coordinates":[-0.3695478,39.4638555]}},
{"type":"Feature","properties":{"fid":96,"id":"126","nom_cataleg":"VT-029","id_stationarea":"VT-029_03","estadoactual_cas":"En uso","estadoactual_val":"En ús","ficticio_cas":"Falso","ficticio_val":"Fals","tipo_acceso_cas":"Ascensor","tipo_acceso_val":"Ascensor","tipo_linea_cas":"Tranvía","tipo_linea_val":"Tramvia","globalid":"{9BCE3229-3C1D-4DC1-80DC-C12153ED615B}","altabd":"2023-05-15 07:20:11","created_user":"CATALEGFFCC","last_edited_date":"2023-05-15 07:25:14","last_edited_user":"CATALEGFFCC"},"geometry":{"type":"Point","coordinates":[-0.3655625,39.4596365]}},
{"type":"Feature","properties":{"fid":97,"id":"127","nom_cataleg":"VT-029","id_stationarea":"VT-029_03","estadoactual_cas":"En uso","estadoactual_val":"En ús","ficticio_cas":"Falso","ficticio_val":"Fals","tipo_acceso_cas":"Ascensor","tipo_acceso_val":"Ascensor","tipo_linea_cas":"Tranvía","tipo_linea_val":"Tramvia","globalid":"{23B08A05-C036-4C0B-8286-12BDA3269ED4}","altabd":"2023-05-15 07:21:14","created_user":"CATALEGFFCC","last_edited_date":"2023-05-15 07:25:14","last_edited_user":"CATALEGFFCC"},"geometry":{"type":"Point","coordinates":[-0.3651129,39.4589945]}},
{"type":"Feature","properties":{"fid":98,"id":"157","nom_cataleg":"VT-029","id_stationarea":"VT-029_01","estadoactual_cas":"En uso","estadoactual_val":"En ús","ficticio_cas":"Falso","ficticio_val":"Fals","tipo_acceso_cas":"Ascensor","tipo_acceso_val":"Ascensor","tipo_linea_cas":"Tranvía","tipo_linea_val":"Tramvia","globalid":"{930FD58A-4125-45EB-AD4B-ED403F6388FC}","altabd":"2022-12-07 15:17:55","created_user":"CATALEGFFCC","last_edited_date":"2023-05-15 07:25:14","last_edited_user":"CATALEGFFCC"},"geometry":{"type":"Point","coordinates":[-0.3776639,39.4634877]}},
{"type":"Feature","properties":{"fid":99,"id":"16","nom_cataleg":"VT-009","id_stationarea":"VT-009a_02","estadoactual_cas":"En uso","estadoactual_val":"En ús","ficticio_cas":"Falso","ficticio_val":"Fals","tipo_acceso_cas":"Ascensor","tipo_acceso_val":"Ascensor","tipo_linea_cas":"Metro","tipo_linea_val":"Metro","globalid":"{FB1CA38D-FC85-4A27-9544-5D6158903703}","altabd":"2018-02-15 15:33:22","created_user":"CATALEGFFCC","last_edited_date":"2023-05-15 07:25:12","last_edited_user":"CATALEGFFCC"},"geometry":{"type":"Point","coordinates":[-0.3764701,39.4672069]}},
{"type":"Feature","properties":{"fid":100,"id":"19","nom_cataleg":"VT-002","id_stationarea":"VT-002b_03","estadoactual_cas":"En uso","estadoactual_val":"En ús","ficticio_cas":"Falso","ficticio_val":"Fals","tipo_acceso_cas":"Ascensor","tipo_acceso_val":"Ascensor","tipo_linea_cas":"Metro","tipo_linea_val":"Metro","globalid":"{11FB4922-9018-425D-BEA6-3E44037DB95F}","altabd":"2018-02-15 15:33:22","created_user":"CATALEGFFCC","last_edited_date":"2023-05-15 07:25:12","last_edited_user":"CATALEGFFCC"},"geometry":{"type":"Point","coordinates":[-0.3903531,39.4788888]}},
{"type":"Feature","properties":{"fid":101,"id":"23","nom_cataleg":"VT-005","id_stationarea":"VT-005_03","estadoactual_cas":"En uso","estadoactual_val":"En ús","ficticio_cas":"Falso","ficticio_val":"Fals","tipo_acceso_cas":"Ascensor","tipo_acceso_val":"Ascensor","tipo_linea_cas":"Metro","tipo_linea_val":"Metro","globalid":"{7A6C421C-94B8-44B7-8C1E-DB346AFF150D}","altabd":"2018-02-15 15:33:22","created_user":"CATALEGFFCC","last_edited_date":"2023-05-15 07:25:12","last_edited_user":"CATALEGFFCC"},"geometry":{"type":"Point","coordinates":[-0.4249435,39.4989155]}},
{"type":"Feature","properties":{"fid":102,"id":"31","nom_cataleg":"VT-005","id_stationarea":"VT-005_02","estadoactual_cas":"En uso","estadoactual_val":"En ús","ficticio_cas":"Falso","ficticio_val":"Fals","tipo_acceso_cas":"Ascensor","tipo_acceso_val":"Ascensor","tipo_linea_cas":"Metro","tipo_linea_val":"Metro","globalid":"{58DD920D-B4CB-4DB2-A0D6-C66BF9498049}","altabd":"2018-02-15 15:33:22","created_user":"CATALEGFFCC","last_edited_date":"2023-05-15 07:25:12","last_edited_user":"CATALEGFFCC"},"geometry":{"type":"Point","coordinates":[-0.4186257,39.5018882]}},
{"type":"Feature","properties":{"fid":103,"id":"41","nom_cataleg":"VT-011","id_stationarea":"VT-011_02","estadoactual_cas":"En uso","estadoactual_val":"En ús","ficticio_cas":"Falso","ficticio_val":"Fals","tipo_acceso_cas":"Ascensor","tipo_acceso_val":"Ascensor","tipo_linea_cas":"Metro","tipo_linea_val":"Metro","globalid":"{28833F37-CB6A-40F8-8250-FA15BFAAD2A6}","altabd":"2018-02-15 15:33:22","created_user":"CATALEGFFCC","last_edited_date":"2023-05-15 07:25:12","last_edited_user":"CATALEGFFCC"},"geometry":{"type":"Point","coordinates":[-0.3500232,39.4700805]}},
{"type":"Feature","properties":{"fid":104,"id":"51","nom_cataleg":"VT-011","id_stationarea":"VT-011_01","estadoactual_cas":"En uso","estadoactual_val":"En ús","ficticio_cas":"Falso","ficticio_val":"Fals","tipo_acceso_cas":"Ascensor","tipo_acceso_val":"Ascensor","tipo_linea_cas":"Metro","tipo_linea_val":"Metro","globalid":"{2DD5A00F-FE2F-43EA-9375-03EFA8787BFD}","altabd":"2018-02-15 15:33:22","created_user":"CATALEGFFCC","last_edited_date":"2023-05-15 07:25:12","last_edited_user":"CATALEGFFCC"},"geometry":{"type":"Point","coordinates":[-0.3573566,39.4726235]}},
{"type":"Feature","properties":{"fid":105,"id":"55","nom_cataleg":"VT-010","id_stationarea":"VT-010a_03","estadoactual_cas":"En uso","estadoactual_val":"En ús","ficticio_cas":"Falso","ficticio_val":"Fals","tipo_acceso_cas":"Ascensor","tipo_acceso_val":"Ascensor","tipo_linea_cas":"Metro","tipo_linea_val":"Metro","globalid":"{F096768D-2897-431B-B2B6-258F1F75290B}","altabd":"2018-02-15 15:33:22","created_user":"CATALEGFFCC","last_edited_date":"2023-05-15 07:25:12","last_edited_user":"CATALEGFFCC"},"geometry":{"type":"Point","coordinates":[-0.3586174,39.4926604]}},
{"type":"Feature","properties":{"fid":106,"id":"59","nom_cataleg":"VT-010","id_stationarea":"VT-010a_01","estadoactual_cas":"En uso","estadoactual_val":"En ús","ficticio_cas":"Falso","ficticio_val":"Fals","tipo_acceso_cas":"Ascensor","tipo_acceso_val":"Ascensor","tipo_linea_cas":"Metro","tipo_linea_val":"Metro","globalid":"{82C05F16-930D-4B56-B172-5D46FF380921}","altabd":"2018-02-15 15:33:22","created_user":"CATALEGFFCC","last_edited_date":"2023-05-15 07:25:12","last_edited_user":"CATALEGFFCC"},"geometry":{"type":"Point","coordinates":[-0.361545,39.4784143]}},
{"type":"Feature","properties":{"fid":107,"id":"63","nom_cataleg":"VT-009","id_stationarea":"VT-009b_02","estadoactual_cas":"En uso","estadoactual_val":"En ús","ficticio_cas":"Falso","ficticio_val":"Fals","tipo_acceso_cas":"Ascensor","tipo_acceso_val":"Ascensor","tipo_linea_cas":"Metro","tipo_linea_val":"Metro","globalid":"{9A1EEFEE-79F1-42E9-A0FD-B270EC6B6B88}","altabd":"2018-02-15 15:33:22","created_user":"CATALEGFFCC","last_edited_date":"2023-05-15 07:25:12","last_edited_user":"CATALEGFFCC"},"geometry":{"type":"Point","coordinates":[-0.3654743,39.4735399]}},
{"type":"Feature","properties":{"fid":108,"id":"65","nom_cataleg":"VT-009","id_stationarea":"VT-009b_02","estadoactual_cas":"En uso","estadoactual_val":"En ús","ficticio_cas":"Falso","ficticio_val":"Fals","tipo_acceso_cas":"Ascensor","tipo_acceso_val":"Ascensor","tipo_linea_cas":"Metro","tipo_linea_val":"Metro","globalid":"{0871A38D-7BC1-4A62-AB30-620716A1B141}","altabd":"2018-02-15 15:33:22","created_user":"CATALEGFFCC","last_edited_date":"2023-05-15 07:25:12","last_edited_user":"CATALEGFFCC"},"geometry":{"type":"Point","coordinates":[-0.3668179,39.4728852]}},
{"type":"Feature","properties":{"fid":109,"id":"70","nom_cataleg":"VT-009","id_stationarea":"VT-009b_01","estadoactual_cas":"En uso","estadoactual_val":"En ús","ficticio_cas":"Falso","ficticio_val":"Fals","tipo_acceso_cas":"Ascensor","tipo_acceso_val":"Ascensor","tipo_linea_cas":"Metro","tipo_linea_val":"Metro","globalid":"{3FCA4F40-E350-4693-AFF5-86A2C2765B8A}","altabd":"2018-02-15 15:33:22","created_user":"CATALEGFFCC","last_edited_date":"2023-05-15 07:25:13","last_edited_user":"CATALEGFFCC"},"geometry":{"type":"Point","coordinates":[-0.3708808,39.4700853]}},
{"type":"Feature","properties":{"fid":110,"id":"78","nom_cataleg":"VT-008","id_stationarea":"VT-008_09","estadoactual_cas":"En uso","estadoactual_val":"En ús","ficticio_cas":"Falso","ficticio_val":"Fals","tipo_acceso_cas":"Ascensor","tipo_acceso_val":"Ascensor","tipo_linea_cas":"Metro","tipo_linea_val":"Metro","globalid":"{0691F69F-4E85-45CC-B5A5-C99EACAB4767}","altabd":"2018-02-15 15:33:22","created_user":"CATALEGFFCC","last_edited_date":"2023-05-15 07:25:13","last_edited_user":"CATALEGFFCC"},"geometry":{"type":"Point","coordinates":[-0.3998018,39.4689884]}},
{"type":"Feature","properties":{"fid":111,"id":"83","nom_cataleg":"VT-008","id_stationarea":"VT-008_08","estadoactual_cas":"En uso","estadoactual_val":"En ús","ficticio_cas":"Falso","ficticio_val":"Fals","tipo_acceso_cas":"Ascensor","tipo_acceso_val":"Ascensor","tipo_linea_cas":"Metro","tipo_linea_val":"Metro","globalid":"{88E8DF9D-1B1A-422F-B505-C2D24347DE52}","altabd":"2018-02-15 15:33:22","created_user":"CATALEGFFCC","last_edited_date":"2023-05-15 07:25:13","last_edited_user":"CATALEGFFCC"},"geometry":{"type":"Point","coordinates":[-0.4062412,39.4704654]}},
{"type":"Feature","properties":{"fid":112,"id":"89","nom_cataleg":"VT-006","id_stationarea":"VT-006_01","estadoactual_cas":"En uso","estadoactual_val":"En ús","ficticio_cas":"Falso","ficticio_val":"Fals","tipo_acceso_cas":"Ascensor","tipo_acceso_val":"Ascensor","tipo_linea_cas":"Metro","tipo_linea_val":"Metro","globalid":"{6E62F784-DF20-4177-9003-693C7B7B02CD}","altabd":"2018-02-15 15:33:22","created_user":"CATALEGFFCC","last_edited_date":"2023-05-15 07:25:13","last_edited_user":"CATALEGFFCC"},"geometry":{"type":"Point","coordinates":[-0.379257,39.4639591]}},
{"type":"Feature","properties":{"fid":113,"id":"91","nom_cataleg":"VT-002","id_stationarea":"VT-002b_05","estadoactual_cas":"En uso","estadoactual_val":"En ús","ficticio_cas":"Falso","ficticio_val":"Fals","tipo_acceso_cas":"Ascensor","tipo_acceso_val":"Ascensor","tipo_linea_cas":"Metro","tipo_linea_val":"Metro","globalid":"{BECB2DA0-4A4F-4951-A9AE-5B1BAE80A927}","altabd":"2018-02-15 15:33:22","created_user":"CATALEGFFCC","last_edited_date":"2023-05-15 07:25:13","last_edited_user":"CATALEGFFCC"},"geometry":{"type":"Point","coordinates":[-0.4000784,39.4905373]}},
{"type":"Feature","properties":{"fid":114,"id":"92","nom_cataleg":"VT-002","id_stationarea":"VT-002b_05","estadoactual_cas":"En uso","estadoactual_val":"En ús","ficticio_cas":"Falso","ficticio_val":"Fals","tipo_acceso_cas":"Ascensor","tipo_acceso_val":"Ascensor","tipo_linea_cas":"Metro","tipo_linea_val":"Metro","globalid":"{758BFBBD-7FD8-4842-A15F-573D1A1AB3C6}","altabd":"2018-02-15 15:33:22","created_user":"CATALEGFFCC","last_edited_date":"2023-05-15 07:25:13","last_edited_user":"CATALEGFFCC"},"geometry":{"type":"Point","coordinates":[-0.3992104,39.4908857]}},
{"type":"Feature","properties":{"fid":115,"id":"93","nom_cataleg":"VT-002","id_stationarea":"VT-002b_04","estadoactual_cas":"En uso","estadoactual_val":"En ús","ficticio_cas":"Falso","ficticio_val":"Fals","tipo_acceso_cas":"Ascensor","tipo_acceso_val":"Ascensor","tipo_linea_cas":"Metro","tipo_linea_val":"Metro","globalid":"{FAA2BE55-B2B1-4F30-A71F-9DB9C4ECD162}","altabd":"2018-02-15 15:33:22","created_user":"CATALEGFFCC","last_edited_date":"2023-05-15 07:25:13","last_edited_user":"CATALEGFFCC"},"geometry":{"type":"Point","coordinates":[-0.3942131,39.4825371]}},
{"type":"Feature","properties":{"fid":116,"id":"95","nom_cataleg":"VT-002","id_stationarea":"VT-002b_04","estadoactual_cas":"En uso","estadoactual_val":"En ús","ficticio_cas":"Falso","ficticio_val":"Fals","tipo_acceso_cas":"Ascensor","tipo_acceso_val":"Ascensor","tipo_linea_cas":"Metro","tipo_linea_val":"Metro","globalid":"{5C6C5BB1-43D6-4130-92B9-8AEB042E8DAF}","altabd":"2018-02-15 15:33:22","created_user":"CATALEGFFCC","last_edited_date":"2023-05-15 07:25:13","last_edited_user":"CATALEGFFCC"},"geometry":{"type":"Point","coordinates":[-0.393505,39.4828677]}},
{"type":"Feature","properties":{"fid":117,"id":"102","nom_cataleg":"VT-002","id_stationarea":"VT-002b_01","estadoactual_cas":"En uso","estadoactual_val":"En ús","ficticio_cas":"Falso","ficticio_val":"Fals","tipo_acceso_cas":"Ascensor","tipo_acceso_val":"Ascensor","tipo_linea_cas":"Metro","tipo_linea_val":"Metro","globalid":"{7BB6FEAB-3DB6-4FAF-8876-D6362308BC6F}","altabd":"2018-02-15 15:33:22","created_user":"CATALEGFFCC","last_edited_date":"2023-05-15 07:25:14","last_edited_user":"CATALEGFFCC"},"geometry":{"type":"Point","coordinates":[-0.381649,39.4661268]}},
{"type":"Feature","properties":{"fid":118,"id":"104","nom_cataleg":"VT-002","id_stationarea":"VT-002b_02","estadoactual_cas":"En uso","estadoactual_val":"En ús","ficticio_cas":"Falso","ficticio_val":"Fals","tipo_acceso_cas":"Ascensor","tipo_acceso_val":"Ascensor","tipo_linea_cas":"Metro","tipo_linea_val":"Metro","globalid":"{89C6307B-55B7-4060-BA91-5581356AEF24}","altabd":"2018-02-15 15:33:22","created_user":"CATALEGFFCC","last_edited_date":"2023-05-15 07:25:14","last_edited_user":"CATALEGFFCC"},"geometry":{"type":"Point","coordinates":[-0.3852758,39.4706123]}},
{"type":"Feature","properties":{"fid":119,"id":"108","nom_cataleg":"VT-002","id_stationarea":"VT-002a_05","estadoactual_cas":"En uso","estadoactual_val":"En ús","ficticio_cas":"Falso","ficticio_val":"Fals","tipo_acceso_cas":"Ascensor","tipo_acceso_val":"Ascensor","tipo_linea_cas":"Metro","tipo_linea_val":"Metro","globalid":"{417FFE43-93D7-4724-B583-889904B9AEAB}","altabd":"2018-02-15 15:33:22","created_user":"CATALEGFFCC","last_edited_date":"2023-05-15 07:25:14","last_edited_user":"CATALEGFFCC"},"geometry":{"type":"Point","coordinates":[-0.4036408,39.4501269]}},
{"type":"Feature","properties":{"fid":120,"id":"109","nom_cataleg":"VT-002","id_stationarea":"VT-002a_05","estadoactual_cas":"En uso","estadoactual_val":"En ús","ficticio_cas":"Falso","ficticio_val":"Fals","tipo_acceso_cas":"Ascensor","tipo_acceso_val":"Ascensor","tipo_linea_cas":"Metro","tipo_linea_val":"Metro","globalid":"{C6B80F90-289D-41B2-BA1B-908F7789E5B3}","altabd":"2018-02-15 15:33:22","created_user":"CATALEGFFCC","last_edited_date":"2023-05-15 07:25:14","last_edited_user":"CATALEGFFCC"},"geometry":{"type":"Point","coordinates":[-0.4035018,39.4500419]}},
{"type":"Feature","properties":{"fid":121,"id":"113","nom_cataleg":"VT-002","id_stationarea":"VT-002a_08","estadoactual_cas":"En uso","estadoactual_val":"En ús","ficticio_cas":"Falso","ficticio_val":"Fals","tipo_acceso_cas":"Ascensor","tipo_acceso_val":"Ascensor","tipo_linea_cas":"Metro","tipo_linea_val":"Metro","globalid":"{B1311EBA-E8A4-4A20-88F6-645279687A13}","altabd":"2018-02-15 15:33:22","created_user":"CATALEGFFCC","last_edited_date":"2023-05-15 07:25:14","last_edited_user":"CATALEGFFCC"},"geometry":{"type":"Point","coordinates":[-0.3853286,39.4590109]}},
{"type":"Feature","properties":{"fid":122,"id":"116","nom_cataleg":"VT-002","id_stationarea":"VT-002a_06","estadoactual_cas":"En uso","estadoactual_val":"En ús","ficticio_cas":"Falso","ficticio_val":"Fals","tipo_acceso_cas":"Ascensor","tipo_acceso_val":"Ascensor","tipo_linea_cas":"Metro","tipo_linea_val":"Metro","globalid":"{2E6ADE5C-EE0E-4F8D-A3F8-30976413FC50}","altabd":"2018-02-15 15:33:22","created_user":"CATALEGFFCC","last_edited_date":"2023-05-15 07:25:14","last_edited_user":"CATALEGFFCC"},"geometry":{"type":"Point","coordinates":[-0.3973252,39.45521]}},
{"type":"Feature","properties":{"fid":123,"id":"121","nom_cataleg":"VT-002","id_stationarea":"VT-002a_07","estadoactual_cas":"En uso","estadoactual_val":"En ús","ficticio_cas":"Falso","ficticio_val":"Fals","tipo_acceso_cas":"Ascensor","tipo_acceso_val":"Ascensor","tipo_linea_cas":"Metro","tipo_linea_val":"Metro","globalid":"{C0423277-B132-4E6E-A3E4-2F040D3BC7F7}","altabd":"2018-02-15 15:33:22","created_user":"CATALEGFFCC","last_edited_date":"2023-05-15 07:25:14","last_edited_user":"CATALEGFFCC"},"geometry":{"type":"Point","coordinates":[-0.3902378,39.4563539]}},
{"type":"Feature","properties":{"fid":124,"id":"130","nom_cataleg":"VT-010","id_stationarea":"VT-010a_04","estadoactual_cas":"En uso","estadoactual_val":"En ús","ficticio_cas":"Falso","ficticio_val":"Fals","tipo_acceso_cas":"Ascensor","tipo_acceso_val":"Ascensor","tipo_linea_cas":"Metro","tipo_linea_val":"Metro","globalid":"{66603FC7-E275-43ED-8C58-6B18DA5385CC}","altabd":"2018-02-15 15:33:22","created_user":"CATALEGFFCC","last_edited_date":"2023-05-15 07:25:41","last_edited_user":"CATALEGFFCC"},"geometry":{"type":"Point","coordinates":[-0.3556616,39.4959355]}},
{"type":"Feature","properties":{"fid":125,"id":"133","nom_cataleg":"VT-010","id_stationarea":"VT-010a_05","estadoactual_cas":"En uso","estadoactual_val":"En ús","ficticio_cas":"Falso","ficticio_val":"Fals","tipo_acceso_cas":"Ascensor","tipo_acceso_val":"Ascensor","tipo_linea_cas":"Metro","tipo_linea_val":"Metro","globalid":"{ADF0288F-6F76-4931-8224-1D46C26C0698}","altabd":"2018-02-15 15:33:22","created_user":"CATALEGFFCC","last_edited_date":"2023-05-15 07:25:41","last_edited_user":"CATALEGFFCC"},"geometry":{"type":"Point","coordinates":[-0.3523294,39.5006231]}},
{"type":"Feature","properties":{"fid":126,"id":"139","nom_cataleg":"VT-010","id_stationarea":"VT-010a_02","estadoactual_cas":"En uso","estadoactual_val":"En ús","ficticio_cas":"Falso","ficticio_val":"Fals","tipo_acceso_cas":"Ascensor","tipo_acceso_val":"Ascensor","tipo_linea_cas":"Metro","tipo_linea_val":"Metro","globalid":"{37ECC540-E16F-4234-9CF3-56DF9E577907}","altabd":"2018-02-15 15:33:22","created_user":"CATALEGFFCC","last_edited_date":"2023-05-15 07:25:14","last_edited_user":"CATALEGFFCC"},"geometry":{"type":"Point","coordinates":[-0.3625649,39.4847628]}},
{"type":"Feature","properties":{"fid":127,"id":"148","nom_cataleg":"VT-002","id_stationarea":"VT-002b_06","estadoactual_cas":"En uso","estadoactual_val":"En ús","ficticio_cas":"Falso","ficticio_val":"Fals","tipo_acceso_cas":"Ascensor","tipo_acceso_val":"Ascensor","tipo_linea_cas":"Metro","tipo_linea_val":"Metro","globalid":"{F4E8E79E-43C1-4E04-8B92-48A53A9ED321}","altabd":"2018-02-15 15:33:22","created_user":"CATALEGFFCC","last_edited_date":"2023-05-15 07:26:56","last_edited_user":"CATALEGFFCC"},"geometry":{"type":"Point","coordinates":[-0.4018789,39.4993957]}},
{"type":"Feature","properties":{"fid":128,"id":"149","nom_cataleg":"VT-002","id_stationarea":"VT-002b_06","estadoactual_cas":"En uso","estadoactual_val":"En ús","ficticio_cas":"Falso","ficticio_val":"Fals","tipo_acceso_cas":"Ascensor","tipo_acceso_val":"Ascensor","tipo_linea_cas":"Metro","tipo_linea_val":"Metro","globalid":"{ECFA0B09-89BE-4CD8-A257-CF2CCC055168}","altabd":"2018-02-15 15:33:22","created_user":"CATALEGFFCC","last_edited_date":"2023-05-15 07:26:56","last_edited_user":"CATALEGFFCC"},"geometry":{"type":"Point","coordinates":[-0.4020202,39.4993049]}},
{"type":"Feature","properties":{"fid":129,"id":"160","nom_cataleg":"VT-004","id_stationarea":"VT-004_01","estadoactual_cas":"En uso","estadoactual_val":"En ús","ficticio_cas":"Falso","ficticio_val":"Fals","tipo_acceso_cas":"Ascensor","tipo_acceso_val":"Ascensor","tipo_linea_cas":"Metro","tipo_linea_val":"Metro","globalid":"{33AB1152-BA0A-4CD2-AD2A-24D920261EB2}","altabd":"2018-02-15 15:33:22","created_user":"CATALEGFFCC","last_edited_date":"2023-05-15 07:27:34","last_edited_user":"CATALEGFFCC"},"geometry":{"type":"Point","coordinates":[-0.4726322,39.431651]}},
{"type":"Feature","properties":{"fid":130,"id":"161","nom_cataleg":"VT-004","id_stationarea":"VT-004_01","estadoactual_cas":"En uso","estadoactual_val":"En ús","ficticio_cas":"Falso","ficticio_val":"Fals","tipo_acceso_cas":"Ascensor","tipo_acceso_val":"Ascensor","tipo_linea_cas":"Metro","tipo_linea_val":"Metro","globalid":"{C87C6A60-7BC6-4168-98CA-CB1BB57177FF}","altabd":"2018-02-15 15:33:22","created_user":"CATALEGFFCC","last_edited_date":"2023-05-15 07:27:34","last_edited_user":"CATALEGFFCC"},"geometry":{"type":"Point","coordinates":[-0.4726317,39.4316505]}},
{"type":"Feature","properties":{"fid":131,"id":"168","nom_cataleg":"VT-002","id_stationarea":"VT-002a_03","estadoactual_cas":"En uso","estadoactual_val":"En ús","ficticio_cas":"Falso","ficticio_val":"Fals","tipo_acceso_cas":"Ascensor","tipo_acceso_val":"Ascensor","tipo_linea_cas":"Metro","tipo_linea_val":"Metro","globalid":"{E531C41B-1FEA-4FEB-92C2-864753C8D53C}","altabd":"2022-12-07 11:58:54","created_user":"CATALEGFFCC","last_edited_date":"2023-05-15 07:28:05","last_edited_user":"CATALEGFFCC"},"geometry":{"type":"Point","coordinates":[-0.4176757,39.4325091]}},
{"type":"Feature","properties":{"fid":132,"id":"169","nom_cataleg":"VT-002","id_stationarea":"VT-002a_03","estadoactual_cas":"En uso","estadoactual_val":"En ús","ficticio_cas":"Falso","ficticio_val":"Fals","tipo_acceso_cas":"Ascensor","tipo_acceso_val":"Ascensor","tipo_linea_cas":"Metro","tipo_linea_val":"Metro","globalid":"{81015718-F04C-4F83-9E47-5BBF4B0572AA}","altabd":"2022-12-07 12:02:08","created_user":"CATALEGFFCC","last_edited_date":"2023-05-15 07:28:05","last_edited_user":"CATALEGFFCC"},"geometry":{"type":"Point","coordinates":[-0.4176127,39.4324106]}},
{"type":"Feature","properties":{"fid":133,"id":"254","nom_cataleg":"VT-008","id_stationarea":"VT-008_03","estadoactual_cas":"En uso","estadoactual_val":"En ús","ficticio_cas":"Falso","ficticio_val":"Fals","tipo_acceso_cas":"Ascensor","tipo_acceso_val":"Ascensor","tipo_linea_cas":"Metro","tipo_linea_val":"Metro","globalid":"{17F3AA9E-D964-4C73-89CB-5387A9366745}","altabd":"2018-02-15 15:33:22","created_user":"CATALEGFFCC","last_edited_date":"2023-05-15 07:42:33","last_edited_user":"CATALEGFFCC"},"geometry":{"type":"Point","coordinates":[-0.4512234,39.4856538]}},
{"type":"Feature","properties":{"fid":134,"id":"256","nom_cataleg":"VT-008","id_stationarea":"VT-008_01","estadoactual_cas":"En uso","estadoactual_val":"En ús","ficticio_cas":"Falso","ficticio_val":"Fals","tipo_acceso_cas":"Ascensor","tipo_acceso_val":"Ascensor","tipo_linea_cas":"Metro","tipo_linea_val":"Metro","globalid":"{CC8A3C9C-7204-40B4-BD50-1CD61209B4C3}","altabd":"2018-02-15 15:33:22","created_user":"CATALEGFFCC","last_edited_date":"2023-05-15 07:42:34","last_edited_user":"CATALEGFFCC"},"geometry":{"type":"Point","coordinates":[-0.4672081,39.4926496]}},
{"type":"Feature","properties":{"fid":135,"id":"258","nom_cataleg":"VT-008","id_stationarea":"VT-008_02","estadoactual_cas":"En uso","estadoactual_val":"En ús","ficticio_cas":"Falso","ficticio_val":"Fals","tipo_acceso_cas":"Ascensor","tipo_acceso_val":"Ascensor","tipo_linea_cas":"Metro","tipo_linea_val":"Metro","globalid":"{4A351928-35A1-4569-80B6-1448B5EFD89C}","altabd":"2018-02-15 15:33:22","created_user":"CATALEGFFCC","last_edited_date":"2023-05-15 07:42:34","last_edited_user":"CATALEGFFCC"},"geometry":{"type":"Point","coordinates":[-0.4595097,39.4896376]}},
{"type":"Feature","properties":{"fid":136,"id":"260","nom_cataleg":"VT-007","id_stationarea":"VT-007a_01","estadoactual_cas":"En uso","estadoactual_val":"En ús","ficticio_cas":"Falso","ficticio_val":"Fals","tipo_acceso_cas":"Ascensor","tipo_acceso_val":"Ascensor","tipo_linea_cas":"Metro","tipo_linea_val":"Metro","globalid":"{644B180E-A891-46AD-84CB-85056843D4F4}","altabd":"2018-02-15 15:33:22","created_user":"CATALEGFFCC","last_edited_date":"2023-05-15 07:42:34","last_edited_user":"CATALEGFFCC"},"geometry":{"type":"Point","coordinates":[-0.4742441,39.4923164]}},
{"type":"Feature","properties":{"fid":137,"id":"268","nom_cataleg":"VT-008","id_stationarea":"VT-008_05","estadoactual_cas":"En uso","estadoactual_val":"En ús","ficticio_cas":"Falso","ficticio_val":"Fals","tipo_acceso_cas":"Ascensor","tipo_acceso_val":"Ascensor","tipo_linea_cas":"Metro","tipo_linea_val":"Metro","globalid":"{CA79EF25-252F-47C9-B7CF-F7E6AEB8C617}","altabd":"2018-02-15 15:33:22","created_user":"CATALEGFFCC","last_edited_date":"2023-05-15 07:42:54","last_edited_user":"CATALEGFFCC"},"geometry":{"type":"Point","coordinates":[-0.4333265,39.4776026]}},
{"type":"Feature","properties":{"fid":138,"id":"270","nom_cataleg":"VT-008","id_stationarea":"VT-008_04","estadoactual_cas":"En uso","estadoactual_val":"En ús","ficticio_cas":"Falso","ficticio_val":"Fals","tipo_acceso_cas":"Ascensor","tipo_acceso_val":"Ascensor","tipo_linea_cas":"Metro","tipo_linea_val":"Metro","globalid":"{F7F8C38B-16C1-43B4-862A-0AC965E8249E}","altabd":"2018-02-15 15:33:22","created_user":"CATALEGFFCC","last_edited_date":"2023-05-15 07:42:54","last_edited_user":"CATALEGFFCC"},"geometry":{"type":"Point","coordinates":[-0.4419775,39.4808767]}},
{"type":"Feature","properties":{"fid":139,"id":"275","nom_cataleg":"VT-008","id_stationarea":"VT-008_07","estadoactual_cas":"En uso","estadoactual_val":"En ús","ficticio_cas":"Falso","ficticio_val":"Fals","tipo_acceso_cas":"Ascensor","tipo_acceso_val":"Ascensor","tipo_linea_cas":"Metro","tipo_linea_val":"Metro","globalid":"{5B109248-F1A8-4C57-A3A6-204B47CDA5FC}","altabd":"2018-02-15 15:33:22","created_user":"CATALEGFFCC","last_edited_date":"2023-05-15 07:44:21","last_edited_user":"CATALEGFFCC"},"geometry":{"type":"Point","coordinates":[-0.4179329,39.473998]}},
{"type":"Feature","properties":{"fid":140,"id":"277","nom_cataleg":"VT-008","id_stationarea":"VT-008_06","estadoactual_cas":"En uso","estadoactual_val":"En ús","ficticio_cas":"Falso","ficticio_val":"Fals","tipo_acceso_cas":"Ascensor","tipo_acceso_val":"Ascensor","tipo_linea_cas":"Metro","tipo_linea_val":"Metro","globalid":"{8232616E-A85B-4441-A2D1-37CFE2C680EF}","altabd":"2018-02-15 15:33:22","created_user":"CATALEGFFCC","last_edited_date":"2023-05-15 07:44:21","last_edited_user":"CATALEGFFCC"},"geometry":{"type":"Point","coordinates":[-0.4236979,39.4757179]}},
{"type":"Feature","properties":{"fid":144,"id":"8","nom_cataleg":"VT-011","id_stationarea":"VT-011_04","estadoactual_cas":"En uso","estadoactual_val":"En ús","ficticio_cas":"Falso","ficticio_val":"Fals","tipo_acceso_cas":"Ascensor","tipo_acceso_val":"Ascensor","tipo_linea_cas":"Metro + Tranvía","tipo_linea_val":"Metro + Tramvia","globalid":"{10DA52AF-13EC-4B26-AC62-B00E663C93F3}","altabd":"2018-02-15 15:33:22","created_user":"CATALEGFFCC","last_edited_date":"2023-05-15 07:25:12","last_edited_user":"CATALEGFFCC"},"geometry":{"type":"Point","coordinates":[-0.3379322,39.4645121]}},
{"type":"Feature","properties":{"fid":145,"id":"47","nom_cataleg":"VT-011","id_stationarea":"VT-011_04","estadoactual_cas":"En uso","estadoactual_val":"En ús","ficticio_cas":"Falso","ficticio_val":"Fals","tipo_acceso_cas":"Ascensor","tipo_acceso_val":"Ascensor","tipo_linea_cas":"Metro + Tranvía","tipo_linea_val":"Metro + Tramvia","globalid":"{A94F4529-C1E8-4805-AEF3-2563DB8220E9}","altabd":"2018-02-15 15:33:22","created_user":"CATALEGFFCC","last_edited_date":"2023-05-15 07:25:12","last_edited_user":"CATALEGFFCC"},"geometry":{"type":"Point","coordinates":[-0.3378264,39.4647309]}},
{"type":"Feature","properties":{"fid":146,"id":"33","nom_cataleg":"VT-029","id_stationarea":"VT-029_03","estadoactual_cas":"En uso","estadoactual_val":"En ús","ficticio_cas":"Falso","ficticio_val":"Fals","tipo_acceso_cas":"Acceso tranvía","tipo_acceso_val":"Accés tramvia","tipo_linea_cas":"Tranvía","tipo_linea_val":"Tramvia","globalid":"{B83495D8-820D-48BE-A2FF-E2B91FFE13FA}","altabd":"2018-02-15 15:33:22","created_user":"CATALEGFFCC","last_edited_date":"2023-05-15 07:25:12","last_edited_user":"CATALEGFFCC"},"geometry":{"type":"Point","coordinates":[-0.3648934,39.4589148]}},
{"type":"Feature","properties":{"fid":147,"id":"34","nom_cataleg":"VT-029","id_stationarea":"VT-029_03","estadoactual_cas":"En uso","estadoactual_val":"En ús","ficticio_cas":"Falso","ficticio_val":"Fals","tipo_acceso_cas":"Acceso tranvía","tipo_acceso_val":"Accés tramvia","tipo_linea_cas":"Tranvía","tipo_linea_val":"Tramvia","globalid":"{97DC4A7E-9D76-4F35-AFEA-F824C88AE048}","altabd":"2018-02-15 15:33:22","created_user":"CATALEGFFCC","last_edited_date":"2023-05-15 07:25:12","last_edited_user":"CATALEGFFCC"},"geometry":{"type":"Point","coordinates":[-0.365536,39.4598272]}},
{"type":"Feature","properties":{"fid":148,"id":"35","nom_cataleg":"VT-029","id_stationarea":"VT-029_01","estadoactual_cas":"En uso","estadoactual_val":"En ús","ficticio_cas":"Falso","ficticio_val":"Fals","tipo_acceso_cas":"Acceso tranvía","tipo_acceso_val":"Accés tramvia","tipo_linea_cas":"Tranvía","tipo_linea_val":"Tramvia","globalid":"{208D4586-71E1-465C-A907-40ECE6F0A22F}","altabd":"2018-02-15 15:33:22","created_user":"CATALEGFFCC","last_edited_date":"2023-05-15 07:25:12","last_edited_user":"CATALEGFFCC"},"geometry":{"type":"Point","coordinates":[-0.3770507,39.46499]}},
{"type":"Feature","properties":{"fid":149,"id":"40","nom_cataleg":"VT-029","id_stationarea":"VT-029_02","estadoactual_cas":"En uso","estadoactual_val":"En ús","ficticio_cas":"Falso","ficticio_val":"Fals","tipo_acceso_cas":"Acceso tranvía","tipo_acceso_val":"Accés tramvia","tipo_linea_cas":"Tranvía","tipo_linea_val":"Tramvia","globalid":"{C20AD72B-CA7A-43BC-8229-9F80448D2AC4}","altabd":"2018-02-15 15:33:22","created_user":"CATALEGFFCC","last_edited_date":"2023-05-15 07:25:12","last_edited_user":"CATALEGFFCC"},"geometry":{"type":"Point","coordinates":[-0.3694649,39.463929]}},
{"type":"Feature","properties":{"fid":159,"id":"36","nom_cataleg":"VT-029","id_stationarea":"VT-029_01","estadoactual_cas":"En uso","estadoactual_val":"En ús","ficticio_cas":"Falso","ficticio_val":"Fals","tipo_acceso_cas":"Acceso subterráneo","tipo_acceso_val":"Accés subterrani","tipo_linea_cas":"Tranvía","tipo_linea_val":"Tramvia","globalid":"{2782241C-25B5-4AE9-87C8-5D09C566D20A}","altabd":"2018-02-15 15:33:22","created_user":"CATALEGFFCC","last_edited_date":"2023-05-15 07:25:12","last_edited_user":"CATALEGFFCC"},"geometry":{"type":"Point","coordinates":[-0.3776037,39.4634825]}},
{"type":"Feature","properties":{"fid":160,"id":"25","nom_cataleg":"VT-002","id_stationarea":"VT-002b_03","estadoactual_cas":"En uso","estadoactual_val":"En ús","ficticio_cas":"Falso","ficticio_val":"Fals","tipo_acceso_cas":"Acceso subterráneo","tipo_acceso_val":"Accés subterrani","tipo_linea_cas":"Metro","tipo_linea_val":"Metro","globalid":"{9BAA2D5D-CA10-4B05-BBCF-5FBFB463ECAF}","altabd":"2018-02-15 15:33:22","created_user":"CATALEGFFCC","last_edited_date":"2023-05-15 07:25:12","last_edited_user":"CATALEGFFCC"},"geometry":{"type":"Point","coordinates":[-0.3903911,39.4795797]}},
{"type":"Feature","properties":{"fid":161,"id":"85","nom_cataleg":"VT-006","id_stationarea":"VT-006_01","estadoactual_cas":"En uso","estadoactual_val":"En ús","ficticio_cas":"Falso","ficticio_val":"Fals","tipo_acceso_cas":"Acceso subterráneo","tipo_acceso_val":"Accés subterrani","tipo_linea_cas":"Metro","tipo_linea_val":"Metro","globalid":"{293609A6-3322-47C1-A675-C14F28BEE503}","altabd":"2018-02-15 15:33:22","created_user":"CATALEGFFCC","last_edited_date":"2023-05-15 07:25:13","last_edited_user":"CATALEGFFCC"},"geometry":{"type":"Point","coordinates":[-0.3792126,39.4633925]}},
{"type":"Feature","properties":{"fid":162,"id":"90","nom_cataleg":"VT-006","id_stationarea":"VT-006_01","estadoactual_cas":"En uso","estadoactual_val":"En ús","ficticio_cas":"Falso","ficticio_val":"Fals","tipo_acceso_cas":"Acceso subterráneo","tipo_acceso_val":"Accés subterrani","tipo_linea_cas":"Metro","tipo_linea_val":"Metro","globalid":"{FAFEA8A9-4DCD-4323-BB88-B166E2F1EC6E}","altabd":"2018-02-15 15:33:22","created_user":"CATALEGFFCC","last_edited_date":"2023-05-15 07:25:13","last_edited_user":"CATALEGFFCC"},"geometry":{"type":"Point","coordinates":[-0.3790245,39.4630859]}},
{"type":"Feature","properties":{"fid":163,"id":"261","nom_cataleg":"VT-007","id_stationarea":"VT-007a_01","estadoactual_cas":"En uso","estadoactual_val":"En ús","ficticio_cas":"Falso","ficticio_val":"Fals","tipo_acceso_cas":"Acceso subterráneo","tipo_acceso_val":"Accés subterrani","tipo_linea_cas":"Metro","tipo_linea_val":"Metro","globalid":"{C179FE7C-1281-452A-9A75-7D4655F10B95}","altabd":"2018-02-15 15:33:22","created_user":"CATALEGFFCC","last_edited_date":"2023-05-15 07:42:33","last_edited_user":"CATALEGFFCC"},"geometry":{"type":"Point","coordinates":[-0.4743105,39.4923209]}},
{"type":"Feature","properties":{"fid":166,"id":"38","nom_cataleg":"VT-029","id_stationarea":"VT-029_02","estadoactual_cas":"En uso","estadoactual_val":"En ús","ficticio_cas":"Falso","ficticio_val":"Fals","tipo_acceso_cas":"Salida de emergencia","tipo_acceso_val":"Eixida d'emergència","tipo_linea_cas":"Tranvía","tipo_linea_val":"Tramvia","globalid":"{128855AB-11B2-44A8-9873-21490E4215BA}","altabd":"2018-02-15 15:33:22","created_user":"CATALEGFFCC","last_edited_date":"2023-05-15 07:25:12","last_edited_user":"CATALEGFFCC"},"geometry":{"type":"Point","coordinates":[-0.3689488,39.4638564]}},
{"type":"Feature","properties":{"fid":168,"id":"20","nom_cataleg":"VT-005","id_stationarea":"VT-005_03","estadoactual_cas":"En uso","estadoactual_val":"En ús","ficticio_cas":"Falso","ficticio_val":"Fals","tipo_acceso_cas":"Salida de emergencia","tipo_acceso_val":"Eixida d'emergència","tipo_linea_cas":"Metro","tipo_linea_val":"Metro","globalid":"{43DD34C5-20D8-480B-A841-75DCBE7F9A94}","altabd":"2018-02-15 15:33:22","created_user":"CATALEGFFCC","last_edited_date":"2023-05-15 07:25:12","last_edited_user":"CATALEGFFCC"},"geometry":{"type":"Point","coordinates":[-0.4241646,39.4996457]}},
{"type":"Feature","properties":{"fid":169,"id":"28","nom_cataleg":"VT-005","id_stationarea":"VT-005_02","estadoactual_cas":"En uso","estadoactual_val":"En ús","ficticio_cas":"Falso","ficticio_val":"Fals","tipo_acceso_cas":"Salida de emergencia","tipo_acceso_val":"Eixida d'emergència","tipo_linea_cas":"Metro","tipo_linea_val":"Metro","globalid":"{BB9B27BA-6485-42F4-BE7E-FCA5A40369B4}","altabd":"2018-02-15 15:33:22","created_user":"CATALEGFFCC","last_edited_date":"2023-05-15 07:25:12","last_edited_user":"CATALEGFFCC"},"geometry":{"type":"Point","coordinates":[-0.4197897,39.5018593]}},
{"type":"Feature","properties":{"fid":173,"id":"128","nom_cataleg":"VT-010","id_stationarea":"VT-010a_05","estadoactual_cas":"En uso","estadoactual_val":"En ús","ficticio_cas":"Falso","ficticio_val":"Fals","tipo_acceso_cas":"Salida de emergencia","tipo_acceso_val":"Eixida d'emergència","tipo_linea_cas":"Metro","tipo_linea_val":"Metro","globalid":"{A29BC332-CBF7-4296-8846-8E5E800AA3C7}","altabd":"2018-02-15 15:33:22","created_user":"CATALEGFFCC","last_edited_date":"2023-05-15 07:25:41","last_edited_user":"CATALEGFFCC"},"geometry":{"type":"Point","coordinates":[-0.3525032,39.5013495]}},
{"type":"Feature","properties":{"fid":177,"id":"251","nom_cataleg":"VT-008","id_stationarea":"VT-008_01","estadoactual_cas":"En uso","estadoactual_val":"En ús","ficticio_cas":"Falso","ficticio_val":"Fals","tipo_acceso_cas":"Salida de emergencia","tipo_acceso_val":"Eixida d'emergència","tipo_linea_cas":"Metro","tipo_linea_val":"Metro","globalid":"{092C8E90-94F8-4FB6-8BB4-D72919184B7A}","altabd":"2018-02-15 15:33:22","created_user":"CATALEGFFCC","last_edited_date":"2023-05-15 07:42:34","last_edited_user":"CATALEGFFCC"},"geometry":{"type":"Point","coordinates":[-0.4660321,39.4922592]}},
{"type":"Feature","properties":{"fid":178,"id":"252","nom_cataleg":"VT-008","id_stationarea":"VT-008_02","estadoactual_cas":"En uso","estadoactual_val":"En ús","ficticio_cas":"Falso","ficticio_val":"Fals","tipo_acceso_cas":"Salida de emergencia","tipo_acceso_val":"Eixida d'emergència","tipo_linea_cas":"Metro","tipo_linea_val":"Metro","globalid":"{FC416C95-6F90-4873-A4EA-55136BBC32C0}","altabd":"2018-02-15 15:33:22","created_user":"CATALEGFFCC","last_edited_date":"2023-05-15 07:42:34","last_edited_user":"CATALEGFFCC"},"geometry":{"type":"Point","coordinates":[-0.4605655,39.4901944]}},
{"type":"Feature","properties":{"fid":180,"id":"263","nom_cataleg":"VT-007","id_stationarea":"VT-007a_01","estadoactual_cas":"En uso","estadoactual_val":"En ús","ficticio_cas":"Falso","ficticio_val":"Fals","tipo_acceso_cas":"Salida de emergencia","tipo_acceso_val":"Eixida d'emergència","tipo_linea_cas":"Metro","tipo_linea_val":"Metro","globalid":"{0186BDE7-BC7E-4AEC-9D22-3AF5DE1EC955}","altabd":"2018-09-18 11:12:13","created_user":"MAP","last_edited_date":"2023-05-15 07:42:34","last_edited_user":"CATALEGFFCC"},"geometry":{"type":"Point","coordinates":[-0.4741539,39.4932256]}},
{"type":"Feature","properties":{"fid":183,"id":"266","nom_cataleg":"VT-008","id_stationarea":"VT-008_05","estadoactual_cas":"En uso","estadoactual_val":"En ús","ficticio_cas":"Falso","ficticio_val":"Fals","tipo_acceso_cas":"Salida de emergencia","tipo_acceso_val":"Eixida d'emergència","tipo_linea_cas":"Metro","tipo_linea_val":"Metro","globalid":"{3F09103E-E7B1-465F-A598-5C9A37138705}","altabd":"2018-02-15 15:33:22","created_user":"CATALEGFFCC","last_edited_date":"2023-05-15 07:42:54","last_edited_user":"CATALEGFFCC"},"geometry":{"type":"Point","coordinates":[-0.4320292,39.4771817]}},
{"type":"Feature","properties":{"fid":184,"id":"267","nom_cataleg":"VT-008","id_stationarea":"VT-008_04","estadoactual_cas":"En uso","estadoactual_val":"En ús","ficticio_cas":"Falso","ficticio_val":"Fals","tipo_acceso_cas":"Salida de emergencia","tipo_acceso_val":"Eixida d'emergència","tipo_linea_cas":"Metro","tipo_linea_val":"Metro","globalid":"{56E51999-B137-4DA1-8719-718ACBA87794}","altabd":"2018-02-15 15:33:22","created_user":"CATALEGFFCC","last_edited_date":"2023-05-15 07:42:54","last_edited_user":"CATALEGFFCC"},"geometry":{"type":"Point","coordinates":[-0.4408743,39.4803752]}},
{"type":"Feature","properties":{"fid":191,"id":"27","nom_cataleg":"VT-011","id_stationarea":"VT-011_04","estadoactual_cas":"En uso","estadoactual_val":"En ús","ficticio_cas":"Falso","ficticio_val":"Fals","tipo_acceso_cas":"Salida de emergencia","tipo_acceso_val":"Eixida d'emergència","tipo_linea_cas":"Metro + Tranvía","tipo_linea_val":"Metro + Tramvia","globalid":"{7397A24C-603F-43A4-A9B1-1C8E683BE392}","altabd":"2018-02-15 15:33:22","created_user":"CATALEGFFCC","last_edited_date":"2023-05-15 07:25:12","last_edited_user":"CATALEGFFCC"},"geometry":{"type":"Point","coordinates":[-0.3395394,39.4651142]}},
{"type":"Feature","properties":{"fid":192,"id":"29","nom_cataleg":"VT-005","id_stationarea":"VT-005_02","estadoactual_cas":"Fuera de servicio","estadoactual_val":"Fora de servei","ficticio_cas":"Falso","ficticio_val":"Fals","tipo_acceso_cas":"Boca metro","tipo_acceso_val":"Boca metro","tipo_linea_cas":"Metro","tipo_linea_val":"Metro","globalid":"{70980EAB-A191-4686-8E94-E6A30650DBC5}","altabd":"2018-02-15 15:33:22","created_user":"CATALEGFFCC","last_edited_date":"2023-05-15 07:25:12","last_edited_user":"CATALEGFFCC"},"geometry":{"type":"Point","coordinates":[-0.4185057,39.5018225]}}
]
}
