{
  "type": "FeatureCollection",
  "name": "ruta_metrovalencia_4",
  "crs": null,
  "features": [
    {
      "type": "Feature",
      "properties": {
        "full_id": "r5620862",
        "osm_id": "5620862",
        "osm_type": "relation",
        "route": "tram",
        "name:es": null,
        "name:ca": null,
        "wikipedia": "ca:Línia 4 de Metrovalència",
        "wikidata": "Q3238939",
        "type": "route",
        "to": "Dr. Lluch",
        "ref": "4",
        "public_transport:version": "2",
        "owner:wikidata": "Q750832",
        "operator:wikipedia": "ca:Ferrocarrils de la Generalitat Valenciana",
        "operator:wikidata": "Q750832",
        "operator:short": "FGV",
        "operator": "Ferrocarrils de la Generalitat Valenciana",
        "network:wikipedia": "ca:Metrovalència",
        "network:wikidata": "Q511171",
        "network": "Metrovalencia",
        "name": "Línia 4: Mas del Rosari => Dr. Lluch",
        "from": "Mas del Rosari",
        "colour": "#004A99",
        "layer": null,
        "path": null
      },
      "geometry": {
        "type": "MultiLineString",
        "coordinates": [
          [
            [
              -0.3258848,
              39.4745485
            ],
            [
              -0.3270858,
              39.4746204
            ],
            [
              -0.3274609,
              39.4746787
            ]
          ],
          [
            [
              -0.3256259,
              39.4742595
            ],
            [
              -0.3256295,
              39.4743573
            ],
            [
              -0.3256681,
              39.4744582
            ],
            [
              -0.3257598,
              39.4745276
            ],
            [
              -0.3258848,
              39.4745485
            ]
          ],
          [
            [
              -0.3256436,
              39.4680964
            ],
            [
              -0.3256259,
              39.4742595
            ]
          ],
          [
            [
              -0.3259952,
              39.4674973
            ],
            [
              -0.3257608,
              39.4675046
            ],
            [
              -0.3256737,
              39.4675438
            ],
            [
              -0.3255929,
              39.4676318
            ],
            [
              -0.3255707,
              39.4677345
            ],
            [
              -0.3256309,
              39.4679558
            ],
            [
              -0.3256436,
              39.4680964
            ]
          ],
          [
            [
              -0.3259952,
              39.4674973
            ],
            [
              -0.3274032,
              39.4676141
            ]
          ],
          [
            [
              -0.3274032,
              39.4676141
            ],
            [
              -0.3279804,
              39.4676624
            ]
          ],
          [
            [
              -0.3279804,
              39.4676624
            ],
            [
              -0.3280922,
              39.4677052
            ],
            [
              -0.3281539,
              39.467759
            ],
            [
              -0.3281941,
              39.4678209
            ],
            [
              -0.328203,
              39.467935
            ]
          ],
          [
            [
              -0.328203,
              39.467935
            ],
            [
              -0.328127,
              39.4684375
            ]
          ]
        ]
      }
    },
    {
      "type": "Feature",
      "properties": {
        "full_id": "r5620871",
        "osm_id": "5620871",
        "osm_type": "relation",
        "route": "tram",
        "name:es": null,
        "name:ca": null,
        "wikipedia": "ca:Línia 4 de Metrovalència",
        "wikidata": "Q3238939",
        "type": "route",
        "to": "Mas del Rosari",
        "ref": "4",
        "public_transport:version": "2",
        "owner:wikidata": "Q750832",
        "operator:wikipedia": "ca:Ferrocarrils de la Generalitat Valenciana",
        "operator:wikidata": "Q750832",
        "operator:short": "FGV",
        "operator": "Ferrocarrils de la Generalitat Valenciana",
        "network:wikipedia": "ca:Metrovalència",
        "network:wikidata": "Q511171",
        "network": "Metrovalencia",
        "name": "Línia 4: Dr. Lluch => Mas del Rosari",
        "from": "Dr. Lluch",
        "colour": "#004A99",
        "layer": null,
        "path": null
      },
      "geometry": {
        "type": "MultiLineString",
        "coordinates": [
          [
            [
              -0.328127,
              39.4684375
            ],
            [
              -0.3272828,
              39.474295
            ]
          ],
          [
            [
              -0.3272828,
              39.474295
            ],
            [
              -0.3272907,
              39.4744639
            ],
            [
              -0.3273657,
              39.4745921
            ],
            [
              -0.3274609,
              39.4746787
            ],
            [
              -0.3276629,
              39.474774
            ]
          ],
          [
            [
              -0.3276629,
              39.474774
            ],
            [
              -0.3514695,
              39.4816348
            ]
          ],
          [
            [
              -0.3514695,
              39.4816348
            ],
            [
              -0.3518626,
              39.4817489
            ]
          ],
          [
            [
              -0.3518626,
              39.4817489
            ],
            [
              -0.3627231,
              39.4849332
            ]
          ],
          [
            [
              -0.3627231,
              39.4849332
            ],
            [
              -0.3674559,
              39.4863223
            ],
            [
              -0.3680114,
              39.4864724
            ],
            [
              -0.3690612,
              39.4867158
            ]
          ],
          [
            [
              -0.3700463,
              39.4866486
            ],
            [
              -0.3699323,
              39.4867647
            ],
            [
              -0.3698341,
              39.4868099
            ],
            [
              -0.3697042,
              39.4868393
            ],
            [
              -0.3695305,
              39.4868259
            ],
            [
              -0.3690612,
              39.4867158
            ]
          ],
          [
            [
              -0.3730382,
              39.4817419
            ],
            [
              -0.3726184,
              39.4823959
            ],
            [
              -0.3723761,
              39.4827259
            ],
            [
              -0.3709097,
              39.4850276
            ],
            [
              -0.3708348,
              39.4851628
            ],
            [
              -0.3707346,
              39.485494
            ],
            [
              -0.3706545,
              39.4856854
            ],
            [
              -0.3700463,
              39.4866486
            ]
          ],
          [
            [
              -0.3730382,
              39.4817419
            ],
            [
              -0.3731078,
              39.4815878
            ],
            [
              -0.3731158,
              39.4814301
            ],
            [
              -0.3731823,
              39.4813482
            ],
            [
              -0.3732947,
              39.4812969
            ],
            [
              -0.3734341,
              39.4812896
            ],
            [
              -0.3735434,
              39.4813336
            ],
            [
              -0.3735798,
              39.4813641
            ],
            [
              -0.3736163,
              39.4814106
            ],
            [
              -0.3736384,
              39.4814962
            ],
            [
              -0.3736353,
              39.4815353
            ],
            [
              -0.3735893,
              39.4816111
            ],
            [
              -0.3734801,
              39.481682
            ],
            [
              -0.3732631,
              39.4817223
            ],
            [
              -0.3731348,
              39.4817859
            ]
          ],
          [
            [
              -0.3731348,
              39.4817859
            ],
            [
              -0.373073,
              39.4818556
            ],
            [
              -0.3724997,
              39.4827626
            ],
            [
              -0.3724854,
              39.4828298
            ],
            [
              -0.3724955,
              39.4829953
            ],
            [
              -0.3724506,
              39.4830963
            ],
            [
              -0.3709764,
              39.4854045
            ],
            [
              -0.3709491,
              39.4854592
            ],
            [
              -0.3709301,
              39.485623
            ],
            [
              -0.3709361,
              39.4856917
            ],
            [
              -0.3710054,
              39.485872
            ],
            [
              -0.371079,
              39.4859971
            ],
            [
              -0.3711882,
              39.4861364
            ],
            [
              -0.3714527,
              39.486376
            ],
            [
              -0.3717869,
              39.4865618
            ],
            [
              -0.3720942,
              39.4866694
            ],
            [
              -0.372449,
              39.4867317
            ],
            [
              -0.3727658,
              39.4867425
            ],
            [
              -0.3732282,
              39.4867073
            ]
          ],
          [
            [
              -0.3822862,
              39.48598
            ],
            [
              -0.3816827,
              39.4859604
            ],
            [
              -0.3810349,
              39.4859604
            ],
            [
              -0.3808069,
              39.485991
            ],
            [
              -0.379562,
              39.4862709
            ],
            [
              -0.3793751,
              39.4862978
            ],
            [
              -0.3790599,
              39.4863002
            ],
            [
              -0.3781578,
              39.4862447
            ],
            [
              -0.3777612,
              39.4862587
            ],
            [
              -0.3732282,
              39.4867073
            ]
          ],
          [
            [
              -0.3822862,
              39.48598
            ],
            [
              -0.3825222,
              39.4860093
            ],
            [
              -0.3826299,
              39.4860386
            ],
            [
              -0.3828183,
              39.4861169
            ],
            [
              -0.3830447,
              39.486249
            ],
            [
              -0.3831764,
              39.4863798
            ],
            [
              -0.3832718,
              39.4865173
            ],
            [
              -0.3834104,
              39.4868337
            ]
          ],
          [
            [
              -0.3834104,
              39.4868337
            ],
            [
              -0.3838206,
              39.4879662
            ]
          ],
          [
            [
              -0.3838206,
              39.4879662
            ],
            [
              -0.3839364,
              39.4882709
            ],
            [
              -0.3840278,
              39.4884382
            ],
            [
              -0.3842182,
              39.4886156
            ],
            [
              -0.3844922,
              39.48877
            ]
          ],
          [
            [
              -0.3844922,
              39.48877
            ],
            [
              -0.3850794,
              39.4890263
            ],
            [
              -0.3854799,
              39.4891756
            ],
            [
              -0.385973,
              39.489336
            ],
            [
              -0.3863889,
              39.4894464
            ],
            [
              -0.3868503,
              39.4895503
            ],
            [
              -0.3874621,
              39.4896528
            ],
            [
              -0.3902655,
              39.4900345
            ],
            [
              -0.3908298,
              39.4901359
            ],
            [
              -0.3912097,
              39.4902369
            ],
            [
              -0.3915631,
              39.4903538
            ],
            [
              -0.3919446,
              39.4905131
            ],
            [
              -0.392252,
              39.4906661
            ],
            [
              -0.3926889,
              39.4909335
            ],
            [
              -0.3930252,
              39.4911857
            ],
            [
              -0.3931873,
              39.4913287
            ],
            [
              -0.3986399,
              39.4964118
            ]
          ],
          [
            [
              -0.3986399,
              39.4964118
            ],
            [
              -0.3987849,
              39.496535
            ],
            [
              -0.3989442,
              39.4966395
            ],
            [
              -0.3995422,
              39.4968941
            ],
            [
              -0.39984,
              39.4970789
            ],
            [
              -0.4000598,
              39.4972837
            ],
            [
              -0.4003578,
              39.4977197
            ],
            [
              -0.4004392,
              39.4978102
            ]
          ],
          [
            [
              -0.4004392,
              39.4978102
            ],
            [
              -0.4013478,
              39.4986684
            ]
          ],
          [
            [
              -0.4013478,
              39.4986684
            ],
            [
              -0.4018738,
              39.499112
            ]
          ],
          [
            [
              -0.4018738,
              39.499112
            ],
            [
              -0.4025268,
              39.499705
            ],
            [
              -0.4027026,
              39.4999073
            ],
            [
              -0.4037953,
              39.5009163
            ],
            [
              -0.4039255,
              39.5010872
            ],
            [
              -0.4040395,
              39.501204
            ],
            [
              -0.4049872,
              39.5020848
            ],
            [
              -0.4052641,
              39.5022984
            ],
            [
              -0.4054611,
              39.502419
            ],
            [
              -0.4056891,
              39.5025208
            ],
            [
              -0.4061075,
              39.5026426
            ],
            [
              -0.4064446,
              39.5026979
            ],
            [
              -0.4067507,
              39.5027243
            ],
            [
              -0.4070862,
              39.5027331
            ],
            [
              -0.4074348,
              39.502715
            ]
          ],
          [
            [
              -0.4091169,
              39.5024436
            ],
            [
              -0.4087228,
              39.5025504
            ],
            [
              -0.4083662,
              39.5026233
            ],
            [
              -0.4079933,
              39.502671
            ],
            [
              -0.4074348,
              39.502715
            ]
          ],
          [
            [
              -0.4091169,
              39.5024436
            ],
            [
              -0.4093644,
              39.5023846
            ],
            [
              -0.40955,
              39.5023795
            ],
            [
              -0.4097113,
              39.5024147
            ],
            [
              -0.4099422,
              39.5025371
            ]
          ],
          [
            [
              -0.4099422,
              39.5025371
            ],
            [
              -0.4102079,
              39.5027062
            ]
          ],
          [
            [
              -0.4102079,
              39.5027062
            ],
            [
              -0.4110551,
              39.5032499
            ]
          ],
          [
            [
              -0.4110551,
              39.5032499
            ],
            [
              -0.4114845,
              39.5035116
            ],
            [
              -0.4119059,
              39.5037386
            ],
            [
              -0.4125185,
              39.5040229
            ],
            [
              -0.4129175,
              39.5041812
            ],
            [
              -0.4136828,
              39.5044438
            ],
            [
              -0.4174199,
              39.5056563
            ]
          ],
          [
            [
              -0.4174199,
              39.5056563
            ],
            [
              -0.4176202,
              39.5057291
            ],
            [
              -0.4177277,
              39.5057894
            ],
            [
              -0.4178254,
              39.5058673
            ],
            [
              -0.4178873,
              39.5059653
            ],
            [
              -0.4179149,
              39.5060658
            ],
            [
              -0.4179101,
              39.5061676
            ],
            [
              -0.4178824,
              39.5062505
            ],
            [
              -0.4177896,
              39.5064101
            ]
          ],
          [
            [
              -0.4177896,
              39.5064101
            ],
            [
              -0.4171317,
              39.5073725
            ]
          ],
          [
            [
              -0.4171317,
              39.5073725
            ],
            [
              -0.4170865,
              39.5074854
            ],
            [
              -0.4170994,
              39.5075898
            ],
            [
              -0.4171854,
              39.5076878
            ],
            [
              -0.4173108,
              39.5077481
            ]
          ],
          [
            [
              -0.4173108,
              39.5077481
            ],
            [
              -0.4207397,
              39.5088589
            ]
          ],
          [
            [
              -0.4207397,
              39.5088589
            ],
            [
              -0.4215347,
              39.5091224
            ]
          ],
          [
            [
              -0.4215347,
              39.5091224
            ],
            [
              -0.4217675,
              39.5092078
            ],
            [
              -0.4219727,
              39.509307
            ],
            [
              -0.4222285,
              39.5094851
            ]
          ],
          [
            [
              -0.4222285,
              39.5094851
            ],
            [
              -0.4223925,
              39.509655
            ]
          ],
          [
            [
              -0.4223925,
              39.509655
            ],
            [
              -0.4225469,
              39.5098707
            ]
          ],
          [
            [
              -0.4225469,
              39.5098707
            ],
            [
              -0.4228395,
              39.510305
            ]
          ],
          [
            [
              -0.4228395,
              39.510305
            ],
            [
              -0.4230914,
              39.5105847
            ],
            [
              -0.4239218,
              39.5114113
            ]
          ],
          [
            [
              -0.4239218,
              39.5114113
            ],
            [
              -0.4243387,
              39.5118611
            ],
            [
              -0.4251058,
              39.5126287
            ]
          ],
          [
            [
              -0.4251058,
              39.5126287
            ],
            [
              -0.4252538,
              39.5127853
            ],
            [
              -0.425301,
              39.5128632
            ],
            [
              -0.425314,
              39.5129537
            ],
            [
              -0.4252847,
              39.5130303
            ],
            [
              -0.4252538,
              39.5130655
            ],
            [
              -0.4251626,
              39.5131484
            ],
            [
              -0.4219417,
              39.5155603
            ],
            [
              -0.4218228,
              39.5157237
            ],
            [
              -0.4217675,
              39.5158794
            ],
            [
              -0.421757,
              39.5160529
            ],
            [
              -0.4217935,
              39.5161822
            ],
            [
              -0.4218522,
              39.5162965
            ],
            [
              -0.4219629,
              39.5164271
            ],
            [
              -0.4227119,
              39.5171017
            ],
            [
              -0.4229594,
              39.5172951
            ],
            [
              -0.4235733,
              39.5177047
            ],
            [
              -0.4237899,
              39.5178793
            ],
            [
              -0.4240218,
              39.5181061
            ],
            [
              -0.4244282,
              39.518599
            ],
            [
              -0.4246187,
              39.5188
            ],
            [
              -0.4261364,
              39.5201516
            ],
            [
              -0.4262992,
              39.5202571
            ],
            [
              -0.4264539,
              39.5203187
            ],
            [
              -0.42676,
              39.5203564
            ],
            [
              -0.4269734,
              39.52033
            ],
            [
              -0.4270759,
              39.5202986
            ],
            [
              -0.4272681,
              39.5202031
            ],
            [
              -0.4274098,
              39.5200687
            ],
            [
              -0.4275009,
              39.5199205
            ],
            [
              -0.4276176,
              39.5194423
            ],
            [
              -0.4277072,
              39.5192714
            ]
          ],
          [
            [
              -0.4285557,
              39.5189905
            ],
            [
              -0.4282103,
              39.519034
            ],
            [
              -0.4280133,
              39.5190792
            ],
            [
              -0.4278602,
              39.5191408
            ],
            [
              -0.4277072,
              39.5192714
            ]
          ],
          [
            [
              -0.4285557,
              39.5189905
            ],
            [
              -0.4289893,
              39.5189659
            ],
            [
              -0.4292477,
              39.518996
            ],
            [
              -0.4295131,
              39.5190738
            ],
            [
              -0.4297467,
              39.5191953
            ],
            [
              -0.4298458,
              39.5192676
            ],
            [
              -0.4300015,
              39.5194164
            ],
            [
              -0.4301201,
              39.5195707
            ],
            [
              -0.4307766,
              39.5206532
            ],
            [
              -0.4310526,
              39.520989
            ],
            [
              -0.4313889,
              39.5213207
            ],
            [
              -0.4358907,
              39.5253497
            ],
            [
              -0.4359916,
              39.5254104
            ],
            [
              -0.4360969,
              39.525433
            ],
            [
              -0.4362305,
              39.5254186
            ],
            [
              -0.4363199,
              39.5253749
            ]
          ]
        ]
      }
    },
    {
      "type": "Feature",
      "properties": {
        "full_id": "r5621789",
        "osm_id": "5621789",
        "osm_type": "relation",
        "route": "tram",
        "name:es": null,
        "name:ca": null,
        "wikipedia": "ca:Línia 4 de Metrovalència",
        "wikidata": "Q3238939",
        "type": "route",
        "to": "Fira València",
        "ref": "4",
        "public_transport:version": "2",
        "owner:wikidata": "Q750832",
        "operator:wikipedia": "ca:Ferrocarrils de la Generalitat Valenciana",
        "operator:wikidata": "Q750832",
        "operator:short": "FGV",
        "operator": "Ferrocarrils de la Generalitat Valenciana",
        "network:wikipedia": "ca:Metrovalència",
        "network:wikidata": "Q511171",
        "network": "Metrovalencia",
        "name": "Línia 4: Dr. Lluch => Fira València",
        "from": "Dr. Lluch",
        "colour": "#004A99",
        "layer": null,
        "path": null
      },
      "geometry": {
        "type": "MultiLineString",
        "coordinates": [
          [
            [
              -0.328127,
              39.4684375
            ],
            [
              -0.3272828,
              39.474295
            ]
          ],
          [
            [
              -0.3272828,
              39.474295
            ],
            [
              -0.3272907,
              39.4744639
            ],
            [
              -0.3273657,
              39.4745921
            ],
            [
              -0.3274609,
              39.4746787
            ],
            [
              -0.3276629,
              39.474774
            ]
          ],
          [
            [
              -0.3276629,
              39.474774
            ],
            [
              -0.3514695,
              39.4816348
            ]
          ],
          [
            [
              -0.3514695,
              39.4816348
            ],
            [
              -0.3518626,
              39.4817489
            ]
          ],
          [
            [
              -0.3518626,
              39.4817489
            ],
            [
              -0.3627231,
              39.4849332
            ]
          ],
          [
            [
              -0.3627231,
              39.4849332
            ],
            [
              -0.3674559,
              39.4863223
            ],
            [
              -0.3680114,
              39.4864724
            ],
            [
              -0.3690612,
              39.4867158
            ]
          ],
          [
            [
              -0.3700463,
              39.4866486
            ],
            [
              -0.3699323,
              39.4867647
            ],
            [
              -0.3698341,
              39.4868099
            ],
            [
              -0.3697042,
              39.4868393
            ],
            [
              -0.3695305,
              39.4868259
            ],
            [
              -0.3690612,
              39.4867158
            ]
          ],
          [
            [
              -0.3730382,
              39.4817419
            ],
            [
              -0.3726184,
              39.4823959
            ],
            [
              -0.3723761,
              39.4827259
            ],
            [
              -0.3709097,
              39.4850276
            ],
            [
              -0.3708348,
              39.4851628
            ],
            [
              -0.3707346,
              39.485494
            ],
            [
              -0.3706545,
              39.4856854
            ],
            [
              -0.3700463,
              39.4866486
            ]
          ],
          [
            [
              -0.3730382,
              39.4817419
            ],
            [
              -0.3731078,
              39.4815878
            ],
            [
              -0.3731158,
              39.4814301
            ],
            [
              -0.3731823,
              39.4813482
            ],
            [
              -0.3732947,
              39.4812969
            ],
            [
              -0.3734341,
              39.4812896
            ],
            [
              -0.3735434,
              39.4813336
            ],
            [
              -0.3735798,
              39.4813641
            ],
            [
              -0.3736163,
              39.4814106
            ],
            [
              -0.3736384,
              39.4814962
            ],
            [
              -0.3736353,
              39.4815353
            ],
            [
              -0.3735893,
              39.4816111
            ],
            [
              -0.3734801,
              39.481682
            ],
            [
              -0.3732631,
              39.4817223
            ],
            [
              -0.3731348,
              39.4817859
            ]
          ],
          [
            [
              -0.3731348,
              39.4817859
            ],
            [
              -0.373073,
              39.4818556
            ],
            [
              -0.3724997,
              39.4827626
            ],
            [
              -0.3724854,
              39.4828298
            ],
            [
              -0.3724955,
              39.4829953
            ],
            [
              -0.3724506,
              39.4830963
            ],
            [
              -0.3709764,
              39.4854045
            ],
            [
              -0.3709491,
              39.4854592
            ],
            [
              -0.3709301,
              39.485623
            ],
            [
              -0.3709361,
              39.4856917
            ],
            [
              -0.3710054,
              39.485872
            ],
            [
              -0.371079,
              39.4859971
            ],
            [
              -0.3711882,
              39.4861364
            ],
            [
              -0.3714527,
              39.486376
            ],
            [
              -0.3717869,
              39.4865618
            ],
            [
              -0.3720942,
              39.4866694
            ],
            [
              -0.372449,
              39.4867317
            ],
            [
              -0.3727658,
              39.4867425
            ],
            [
              -0.3732282,
              39.4867073
            ]
          ],
          [
            [
              -0.3822862,
              39.48598
            ],
            [
              -0.3816827,
              39.4859604
            ],
            [
              -0.3810349,
              39.4859604
            ],
            [
              -0.3808069,
              39.485991
            ],
            [
              -0.379562,
              39.4862709
            ],
            [
              -0.3793751,
              39.4862978
            ],
            [
              -0.3790599,
              39.4863002
            ],
            [
              -0.3781578,
              39.4862447
            ],
            [
              -0.3777612,
              39.4862587
            ],
            [
              -0.3732282,
              39.4867073
            ]
          ],
          [
            [
              -0.3822862,
              39.48598
            ],
            [
              -0.3825222,
              39.4860093
            ],
            [
              -0.3826299,
              39.4860386
            ],
            [
              -0.3828183,
              39.4861169
            ],
            [
              -0.3830447,
              39.486249
            ],
            [
              -0.3831764,
              39.4863798
            ],
            [
              -0.3832718,
              39.4865173
            ],
            [
              -0.3834104,
              39.4868337
            ]
          ],
          [
            [
              -0.3834104,
              39.4868337
            ],
            [
              -0.3838206,
              39.4879662
            ]
          ],
          [
            [
              -0.3838206,
              39.4879662
            ],
            [
              -0.3839364,
              39.4882709
            ],
            [
              -0.3840278,
              39.4884382
            ],
            [
              -0.3842182,
              39.4886156
            ],
            [
              -0.3844922,
              39.48877
            ]
          ],
          [
            [
              -0.3844922,
              39.48877
            ],
            [
              -0.3850794,
              39.4890263
            ],
            [
              -0.3854799,
              39.4891756
            ],
            [
              -0.385973,
              39.489336
            ],
            [
              -0.3863889,
              39.4894464
            ],
            [
              -0.3868503,
              39.4895503
            ],
            [
              -0.3874621,
              39.4896528
            ],
            [
              -0.3902655,
              39.4900345
            ],
            [
              -0.3908298,
              39.4901359
            ],
            [
              -0.3912097,
              39.4902369
            ],
            [
              -0.3915631,
              39.4903538
            ],
            [
              -0.3919446,
              39.4905131
            ],
            [
              -0.392252,
              39.4906661
            ],
            [
              -0.3926889,
              39.4909335
            ],
            [
              -0.3930252,
              39.4911857
            ],
            [
              -0.3931873,
              39.4913287
            ],
            [
              -0.3986399,
              39.4964118
            ]
          ],
          [
            [
              -0.3986399,
              39.4964118
            ],
            [
              -0.3987849,
              39.496535
            ],
            [
              -0.3989442,
              39.4966395
            ],
            [
              -0.3995422,
              39.4968941
            ],
            [
              -0.39984,
              39.4970789
            ],
            [
              -0.4000598,
              39.4972837
            ],
            [
              -0.4003578,
              39.4977197
            ],
            [
              -0.4004392,
              39.4978102
            ]
          ],
          [
            [
              -0.4004392,
              39.4978102
            ],
            [
              -0.4013478,
              39.4986684
            ]
          ],
          [
            [
              -0.4013478,
              39.4986684
            ],
            [
              -0.4018738,
              39.499112
            ]
          ],
          [
            [
              -0.4018738,
              39.499112
            ],
            [
              -0.4025268,
              39.499705
            ],
            [
              -0.4027026,
              39.4999073
            ],
            [
              -0.4037953,
              39.5009163
            ],
            [
              -0.4039255,
              39.5010872
            ],
            [
              -0.4040395,
              39.501204
            ],
            [
              -0.4049872,
              39.5020848
            ],
            [
              -0.4052641,
              39.5022984
            ],
            [
              -0.4054611,
              39.502419
            ],
            [
              -0.4056891,
              39.5025208
            ],
            [
              -0.4061075,
              39.5026426
            ],
            [
              -0.4064446,
              39.5026979
            ],
            [
              -0.4067507,
              39.5027243
            ],
            [
              -0.4070862,
              39.5027331
            ],
            [
              -0.4074348,
              39.502715
            ]
          ],
          [
            [
              -0.4091169,
              39.5024436
            ],
            [
              -0.4087228,
              39.5025504
            ],
            [
              -0.4083662,
              39.5026233
            ],
            [
              -0.4079933,
              39.502671
            ],
            [
              -0.4074348,
              39.502715
            ]
          ],
          [
            [
              -0.4091169,
              39.5024436
            ],
            [
              -0.4093644,
              39.5023846
            ],
            [
              -0.40955,
              39.5023795
            ],
            [
              -0.4097113,
              39.5024147
            ],
            [
              -0.4099422,
              39.5025371
            ]
          ],
          [
            [
              -0.4099422,
              39.5025371
            ],
            [
              -0.4102079,
              39.5027062
            ]
          ],
          [
            [
              -0.4102079,
              39.5027062
            ],
            [
              -0.4110551,
              39.5032499
            ]
          ],
          [
            [
              -0.4110551,
              39.5032499
            ],
            [
              -0.4114845,
              39.5035116
            ],
            [
              -0.4119059,
              39.5037386
            ],
            [
              -0.4125185,
              39.5040229
            ],
            [
              -0.4129175,
              39.5041812
            ],
            [
              -0.4136828,
              39.5044438
            ],
            [
              -0.4174199,
              39.5056563
            ]
          ],
          [
            [
              -0.4174199,
              39.5056563
            ],
            [
              -0.4176202,
              39.5057291
            ],
            [
              -0.4177277,
              39.5057894
            ],
            [
              -0.4178254,
              39.5058673
            ],
            [
              -0.4178873,
              39.5059653
            ],
            [
              -0.4179149,
              39.5060658
            ],
            [
              -0.4179101,
              39.5061676
            ],
            [
              -0.4178824,
              39.5062505
            ],
            [
              -0.4177896,
              39.5064101
            ]
          ],
          [
            [
              -0.4177896,
              39.5064101
            ],
            [
              -0.4171317,
              39.5073725
            ]
          ],
          [
            [
              -0.4171317,
              39.5073725
            ],
            [
              -0.4170865,
              39.5074854
            ],
            [
              -0.4170994,
              39.5075898
            ],
            [
              -0.4171854,
              39.5076878
            ],
            [
              -0.4173108,
              39.5077481
            ]
          ],
          [
            [
              -0.4173108,
              39.5077481
            ],
            [
              -0.4207397,
              39.5088589
            ]
          ],
          [
            [
              -0.4207397,
              39.5088589
            ],
            [
              -0.4209932,
              39.5089963
            ],
            [
              -0.4216775,
              39.5092275
            ],
            [
              -0.4219483,
              39.5093543
            ],
            [
              -0.4222222,
              39.5095566
            ],
            [
              -0.4223173,
              39.5096469
            ],
            [
              -0.4225198,
              39.5099072
            ],
            [
              -0.4226111,
              39.5099694
            ],
            [
              -0.4227604,
              39.51
            ],
            [
              -0.4228969,
              39.5099718
            ],
            [
              -0.4229897,
              39.5099103
            ],
            [
              -0.4230508,
              39.5097908
            ]
          ],
          [
            [
              -0.423167,
              39.5095546
            ],
            [
              -0.4231268,
              39.5095806
            ],
            [
              -0.4230774,
              39.5096444
            ],
            [
              -0.4230508,
              39.5097908
            ]
          ],
          [
            [
              -0.424486,
              39.5086432
            ],
            [
              -0.4240036,
              39.5090129
            ],
            [
              -0.423167,
              39.5095546
            ]
          ],
          [
            [
              -0.4249238,
              39.5083228
            ],
            [
              -0.424486,
              39.5086432
            ]
          ],
          [
            [
              -0.4255568,
              39.5040402
            ],
            [
              -0.4252433,
              39.504292
            ],
            [
              -0.4250841,
              39.5044979
            ],
            [
              -0.4250178,
              39.5046521
            ],
            [
              -0.4247718,
              39.5054719
            ],
            [
              -0.4247728,
              39.505665
            ],
            [
              -0.4248609,
              39.5058789
            ],
            [
              -0.4248835,
              39.5059717
            ],
            [
              -0.424877,
              39.5060876
            ],
            [
              -0.4248115,
              39.506324
            ],
            [
              -0.4248104,
              39.5064691
            ],
            [
              -0.4248351,
              39.5065859
            ],
            [
              -0.42492,
              39.506765
            ],
            [
              -0.425382,
              39.5073974
            ],
            [
              -0.4254411,
              39.5075242
            ],
            [
              -0.4254647,
              39.5076461
            ],
            [
              -0.4254432,
              39.5078177
            ],
            [
              -0.425354,
              39.5079776
            ],
            [
              -0.4252423,
              39.5080854
            ],
            [
              -0.4249238,
              39.5083228
            ]
          ]
        ]
      }
    },
    {
      "type": "Feature",
      "properties": {
        "full_id": "r5621890",
        "osm_id": "5621890",
        "osm_type": "relation",
        "route": "tram",
        "name:es": null,
        "name:ca": null,
        "wikipedia": "ca:Línia 4 de Metrovalència",
        "wikidata": "Q3238939",
        "type": "route",
        "to": "Lloma Llarga Terramelar",
        "ref": "4",
        "public_transport:version": "2",
        "owner:wikidata": "Q750832",
        "operator:wikipedia": "ca:Ferrocarrils de la Generalitat Valenciana",
        "operator:wikidata": "Q750832",
        "operator:short": "FGV",
        "operator": "Ferrocarrils de la Generalitat Valenciana",
        "network:wikipedia": "ca:Metrovalència",
        "network:wikidata": "Q511171",
        "network": "Metrovalencia",
        "name": "Línia 4: Dr. Lluch => Lloma Llarga Terramelar",
        "from": "Dr. Lluch",
        "colour": "#004A99",
        "layer": null,
        "path": null
      },
      "geometry": {
        "type": "MultiLineString",
        "coordinates": [
          [
            [
              -0.328127,
              39.4684375
            ],
            [
              -0.3272828,
              39.474295
            ]
          ],
          [
            [
              -0.3272828,
              39.474295
            ],
            [
              -0.3272907,
              39.4744639
            ],
            [
              -0.3273657,
              39.4745921
            ],
            [
              -0.3274609,
              39.4746787
            ],
            [
              -0.3276629,
              39.474774
            ]
          ],
          [
            [
              -0.3276629,
              39.474774
            ],
            [
              -0.3514695,
              39.4816348
            ]
          ],
          [
            [
              -0.3514695,
              39.4816348
            ],
            [
              -0.3518626,
              39.4817489
            ]
          ],
          [
            [
              -0.3518626,
              39.4817489
            ],
            [
              -0.3627231,
              39.4849332
            ]
          ],
          [
            [
              -0.3627231,
              39.4849332
            ],
            [
              -0.3674559,
              39.4863223
            ],
            [
              -0.3680114,
              39.4864724
            ],
            [
              -0.3690612,
              39.4867158
            ]
          ],
          [
            [
              -0.3700463,
              39.4866486
            ],
            [
              -0.3699323,
              39.4867647
            ],
            [
              -0.3698341,
              39.4868099
            ],
            [
              -0.3697042,
              39.4868393
            ],
            [
              -0.3695305,
              39.4868259
            ],
            [
              -0.3690612,
              39.4867158
            ]
          ],
          [
            [
              -0.3730382,
              39.4817419
            ],
            [
              -0.3726184,
              39.4823959
            ],
            [
              -0.3723761,
              39.4827259
            ],
            [
              -0.3709097,
              39.4850276
            ],
            [
              -0.3708348,
              39.4851628
            ],
            [
              -0.3707346,
              39.485494
            ],
            [
              -0.3706545,
              39.4856854
            ],
            [
              -0.3700463,
              39.4866486
            ]
          ],
          [
            [
              -0.3730382,
              39.4817419
            ],
            [
              -0.3731078,
              39.4815878
            ],
            [
              -0.3731158,
              39.4814301
            ],
            [
              -0.3731823,
              39.4813482
            ],
            [
              -0.3732947,
              39.4812969
            ],
            [
              -0.3734341,
              39.4812896
            ],
            [
              -0.3735434,
              39.4813336
            ],
            [
              -0.3735798,
              39.4813641
            ],
            [
              -0.3736163,
              39.4814106
            ],
            [
              -0.3736384,
              39.4814962
            ],
            [
              -0.3736353,
              39.4815353
            ],
            [
              -0.3735893,
              39.4816111
            ],
            [
              -0.3734801,
              39.481682
            ],
            [
              -0.3732631,
              39.4817223
            ],
            [
              -0.3731348,
              39.4817859
            ]
          ],
          [
            [
              -0.3731348,
              39.4817859
            ],
            [
              -0.373073,
              39.4818556
            ],
            [
              -0.3724997,
              39.4827626
            ],
            [
              -0.3724854,
              39.4828298
            ],
            [
              -0.3724955,
              39.4829953
            ],
            [
              -0.3724506,
              39.4830963
            ],
            [
              -0.3709764,
              39.4854045
            ],
            [
              -0.3709491,
              39.4854592
            ],
            [
              -0.3709301,
              39.485623
            ],
            [
              -0.3709361,
              39.4856917
            ],
            [
              -0.3710054,
              39.485872
            ],
            [
              -0.371079,
              39.4859971
            ],
            [
              -0.3711882,
              39.4861364
            ],
            [
              -0.3714527,
              39.486376
            ],
            [
              -0.3717869,
              39.4865618
            ],
            [
              -0.3720942,
              39.4866694
            ],
            [
              -0.372449,
              39.4867317
            ],
            [
              -0.3727658,
              39.4867425
            ],
            [
              -0.3732282,
              39.4867073
            ]
          ],
          [
            [
              -0.3822862,
              39.48598
            ],
            [
              -0.3816827,
              39.4859604
            ],
            [
              -0.3810349,
              39.4859604
            ],
            [
              -0.3808069,
              39.485991
            ],
            [
              -0.379562,
              39.4862709
            ],
            [
              -0.3793751,
              39.4862978
            ],
            [
              -0.3790599,
              39.4863002
            ],
            [
              -0.3781578,
              39.4862447
            ],
            [
              -0.3777612,
              39.4862587
            ],
            [
              -0.3732282,
              39.4867073
            ]
          ],
          [
            [
              -0.3822862,
              39.48598
            ],
            [
              -0.3825222,
              39.4860093
            ],
            [
              -0.3826299,
              39.4860386
            ],
            [
              -0.3828183,
              39.4861169
            ],
            [
              -0.3830447,
              39.486249
            ],
            [
              -0.3831764,
              39.4863798
            ],
            [
              -0.3832718,
              39.4865173
            ],
            [
              -0.3834104,
              39.4868337
            ]
          ],
          [
            [
              -0.3834104,
              39.4868337
            ],
            [
              -0.3838206,
              39.4879662
            ]
          ],
          [
            [
              -0.3838206,
              39.4879662
            ],
            [
              -0.3839364,
              39.4882709
            ],
            [
              -0.3840278,
              39.4884382
            ],
            [
              -0.3842182,
              39.4886156
            ],
            [
              -0.3844922,
              39.48877
            ]
          ],
          [
            [
              -0.3844922,
              39.48877
            ],
            [
              -0.3850794,
              39.4890263
            ],
            [
              -0.3854799,
              39.4891756
            ],
            [
              -0.385973,
              39.489336
            ],
            [
              -0.3863889,
              39.4894464
            ],
            [
              -0.3868503,
              39.4895503
            ],
            [
              -0.3874621,
              39.4896528
            ],
            [
              -0.3902655,
              39.4900345
            ],
            [
              -0.3908298,
              39.4901359
            ],
            [
              -0.3912097,
              39.4902369
            ],
            [
              -0.3915631,
              39.4903538
            ],
            [
              -0.3919446,
              39.4905131
            ],
            [
              -0.392252,
              39.4906661
            ],
            [
              -0.3926889,
              39.4909335
            ],
            [
              -0.3930252,
              39.4911857
            ],
            [
              -0.3931873,
              39.4913287
            ],
            [
              -0.3986399,
              39.4964118
            ]
          ],
          [
            [
              -0.3986399,
              39.4964118
            ],
            [
              -0.3987849,
              39.496535
            ],
            [
              -0.3989442,
              39.4966395
            ],
            [
              -0.3995422,
              39.4968941
            ],
            [
              -0.39984,
              39.4970789
            ],
            [
              -0.4000598,
              39.4972837
            ],
            [
              -0.4003578,
              39.4977197
            ],
            [
              -0.4004392,
              39.4978102
            ]
          ],
          [
            [
              -0.4004392,
              39.4978102
            ],
            [
              -0.4013478,
              39.4986684
            ]
          ],
          [
            [
              -0.4013478,
              39.4986684
            ],
            [
              -0.4018738,
              39.499112
            ]
          ],
          [
            [
              -0.4018738,
              39.499112
            ],
            [
              -0.4025268,
              39.499705
            ],
            [
              -0.4027026,
              39.4999073
            ],
            [
              -0.4037953,
              39.5009163
            ],
            [
              -0.4039255,
              39.5010872
            ],
            [
              -0.4040395,
              39.501204
            ],
            [
              -0.4049872,
              39.5020848
            ],
            [
              -0.4052641,
              39.5022984
            ],
            [
              -0.4054611,
              39.502419
            ],
            [
              -0.4056891,
              39.5025208
            ],
            [
              -0.4061075,
              39.5026426
            ],
            [
              -0.4064446,
              39.5026979
            ],
            [
              -0.4067507,
              39.5027243
            ],
            [
              -0.4070862,
              39.5027331
            ],
            [
              -0.4074348,
              39.502715
            ]
          ],
          [
            [
              -0.4091169,
              39.5024436
            ],
            [
              -0.4087228,
              39.5025504
            ],
            [
              -0.4083662,
              39.5026233
            ],
            [
              -0.4079933,
              39.502671
            ],
            [
              -0.4074348,
              39.502715
            ]
          ],
          [
            [
              -0.4091169,
              39.5024436
            ],
            [
              -0.4093644,
              39.5023846
            ],
            [
              -0.40955,
              39.5023795
            ],
            [
              -0.4097113,
              39.5024147
            ],
            [
              -0.4099422,
              39.5025371
            ]
          ],
          [
            [
              -0.4099422,
              39.5025371
            ],
            [
              -0.4102079,
              39.5027062
            ]
          ],
          [
            [
              -0.4102079,
              39.5027062
            ],
            [
              -0.4110551,
              39.5032499
            ]
          ],
          [
            [
              -0.4110551,
              39.5032499
            ],
            [
              -0.4114845,
              39.5035116
            ],
            [
              -0.4119059,
              39.5037386
            ],
            [
              -0.4125185,
              39.5040229
            ],
            [
              -0.4129175,
              39.5041812
            ],
            [
              -0.4136828,
              39.5044438
            ],
            [
              -0.4174199,
              39.5056563
            ]
          ],
          [
            [
              -0.4174199,
              39.5056563
            ],
            [
              -0.4176202,
              39.5057291
            ],
            [
              -0.4177277,
              39.5057894
            ],
            [
              -0.4178254,
              39.5058673
            ],
            [
              -0.4178873,
              39.5059653
            ],
            [
              -0.4179149,
              39.5060658
            ],
            [
              -0.4179101,
              39.5061676
            ],
            [
              -0.4178824,
              39.5062505
            ],
            [
              -0.4177896,
              39.5064101
            ]
          ],
          [
            [
              -0.4177896,
              39.5064101
            ],
            [
              -0.4171317,
              39.5073725
            ]
          ],
          [
            [
              -0.4171317,
              39.5073725
            ],
            [
              -0.4170865,
              39.5074854
            ],
            [
              -0.4170994,
              39.5075898
            ],
            [
              -0.4171854,
              39.5076878
            ],
            [
              -0.4173108,
              39.5077481
            ]
          ],
          [
            [
              -0.4173108,
              39.5077481
            ],
            [
              -0.4207397,
              39.5088589
            ]
          ],
          [
            [
              -0.4207397,
              39.5088589
            ],
            [
              -0.4215347,
              39.5091224
            ]
          ],
          [
            [
              -0.4215347,
              39.5091224
            ],
            [
              -0.4217675,
              39.5092078
            ],
            [
              -0.4219727,
              39.509307
            ],
            [
              -0.4222285,
              39.5094851
            ]
          ],
          [
            [
              -0.4222285,
              39.5094851
            ],
            [
              -0.4223925,
              39.509655
            ]
          ],
          [
            [
              -0.4223925,
              39.509655
            ],
            [
              -0.4225469,
              39.5098707
            ]
          ],
          [
            [
              -0.4225469,
              39.5098707
            ],
            [
              -0.4228395,
              39.510305
            ]
          ],
          [
            [
              -0.4228395,
              39.510305
            ],
            [
              -0.4230914,
              39.5105847
            ],
            [
              -0.4239218,
              39.5114113
            ]
          ],
          [
            [
              -0.4239218,
              39.5114113
            ],
            [
              -0.4243387,
              39.5118611
            ],
            [
              -0.4251058,
              39.5126287
            ]
          ],
          [
            [
              -0.4292865,
              39.5103127
            ],
            [
              -0.4285991,
              39.5105714
            ],
            [
              -0.4281478,
              39.5108144
            ],
            [
              -0.4278311,
              39.5110588
            ],
            [
              -0.4272896,
              39.5115475
            ],
            [
              -0.4270029,
              39.511781
            ],
            [
              -0.4256644,
              39.5126793
            ],
            [
              -0.4255538,
              39.5127232
            ],
            [
              -0.4253743,
              39.5127398
            ],
            [
              -0.4251981,
              39.5126992
            ],
            [
              -0.4251058,
              39.5126287
            ]
          ],
          [
            [
              -0.4304064,
              39.5099157
            ],
            [
              -0.4292865,
              39.5103127
            ]
          ],
          [
            [
              -0.4304064,
              39.5099157
            ],
            [
              -0.4312606,
              39.5096089
            ],
            [
              -0.4314198,
              39.5095665
            ],
            [
              -0.4315632,
              39.5095529
            ],
            [
              -0.4317791,
              39.5095802
            ],
            [
              -0.4319189,
              39.5096334
            ],
            [
              -0.4325028,
              39.5099884
            ]
          ]
        ]
      }
    },
    {
      "type": "Feature",
      "properties": {
        "full_id": "r5621891",
        "osm_id": "5621891",
        "osm_type": "relation",
        "route": "tram",
        "name:es": "Línea 4: Feria Valencia => Dr. Lluch",
        "name:ca": "Línia 4: Fira València => Dr. Lluch",
        "wikipedia": "ca:Línia 4 de Metrovalència",
        "wikidata": "Q3238939",
        "type": "route",
        "to": "Dr. Lluch",
        "ref": "4",
        "public_transport:version": "2",
        "owner:wikidata": "Q750832",
        "operator:wikipedia": "ca:Ferrocarrils de la Generalitat Valenciana",
        "operator:wikidata": "Q750832",
        "operator:short": "FGV",
        "operator": "Ferrocarrils de la Generalitat Valenciana",
        "network:wikipedia": "ca:Metrovalència",
        "network:wikidata": "Q511171",
        "network": "Metrovalencia",
        "name": "Línia 4: Fira València => Dr. Lluch",
        "from": "Fira València",
        "colour": "#004A99",
        "layer": null,
        "path": null
      },
      "geometry": {
        "type": "MultiLineString",
        "coordinates": [
          [
            [
              -0.3258848,
              39.4745485
            ],
            [
              -0.3270858,
              39.4746204
            ],
            [
              -0.3274609,
              39.4746787
            ]
          ],
          [
            [
              -0.3256259,
              39.4742595
            ],
            [
              -0.3256295,
              39.4743573
            ],
            [
              -0.3256681,
              39.4744582
            ],
            [
              -0.3257598,
              39.4745276
            ],
            [
              -0.3258848,
              39.4745485
            ]
          ],
          [
            [
              -0.3256436,
              39.4680964
            ],
            [
              -0.3256259,
              39.4742595
            ]
          ],
          [
            [
              -0.3259952,
              39.4674973
            ],
            [
              -0.3257608,
              39.4675046
            ],
            [
              -0.3256737,
              39.4675438
            ],
            [
              -0.3255929,
              39.4676318
            ],
            [
              -0.3255707,
              39.4677345
            ],
            [
              -0.3256309,
              39.4679558
            ],
            [
              -0.3256436,
              39.4680964
            ]
          ],
          [
            [
              -0.3259952,
              39.4674973
            ],
            [
              -0.3274032,
              39.4676141
            ]
          ],
          [
            [
              -0.3274032,
              39.4676141
            ],
            [
              -0.3279804,
              39.4676624
            ]
          ],
          [
            [
              -0.3279804,
              39.4676624
            ],
            [
              -0.3280922,
              39.4677052
            ],
            [
              -0.3281539,
              39.467759
            ],
            [
              -0.3281941,
              39.4678209
            ],
            [
              -0.328203,
              39.467935
            ]
          ],
          [
            [
              -0.328203,
              39.467935
            ],
            [
              -0.328127,
              39.4684375
            ]
          ]
        ]
      }
    },
    {
      "type": "Feature",
      "properties": {
        "full_id": "r5621892",
        "osm_id": "5621892",
        "osm_type": "relation",
        "route": "tram",
        "name:es": null,
        "name:ca": null,
        "wikipedia": "ca:Línia 4 de Metrovalència",
        "wikidata": "Q3238939",
        "type": "route",
        "to": "Dr. Lluch",
        "ref": "4",
        "public_transport:version": "2",
        "owner:wikidata": "Q750832",
        "operator:wikipedia": "ca:Ferrocarrils de la Generalitat Valenciana",
        "operator:wikidata": "Q750832",
        "operator:short": "FGV",
        "operator": "Ferrocarrils de la Generalitat Valenciana",
        "network:wikipedia": "ca:Metrovalència",
        "network:wikidata": "Q511171",
        "network": "Metrovalencia",
        "name": "Línia 4: Lloma Llarga Terramelar => Dr. Lluch",
        "from": "Lloma Llarga Terramelar",
        "colour": "#004A99",
        "layer": null,
        "path": null
      },
      "geometry": {
        "type": "MultiLineString",
        "coordinates": [
          [
            [
              -0.3258848,
              39.4745485
            ],
            [
              -0.3270858,
              39.4746204
            ],
            [
              -0.3274609,
              39.4746787
            ]
          ],
          [
            [
              -0.3256259,
              39.4742595
            ],
            [
              -0.3256295,
              39.4743573
            ],
            [
              -0.3256681,
              39.4744582
            ],
            [
              -0.3257598,
              39.4745276
            ],
            [
              -0.3258848,
              39.4745485
            ]
          ],
          [
            [
              -0.3256436,
              39.4680964
            ],
            [
              -0.3256259,
              39.4742595
            ]
          ],
          [
            [
              -0.3259952,
              39.4674973
            ],
            [
              -0.3257608,
              39.4675046
            ],
            [
              -0.3256737,
              39.4675438
            ],
            [
              -0.3255929,
              39.4676318
            ],
            [
              -0.3255707,
              39.4677345
            ],
            [
              -0.3256309,
              39.4679558
            ],
            [
              -0.3256436,
              39.4680964
            ]
          ],
          [
            [
              -0.3259952,
              39.4674973
            ],
            [
              -0.3274032,
              39.4676141
            ]
          ],
          [
            [
              -0.3274032,
              39.4676141
            ],
            [
              -0.3279804,
              39.4676624
            ]
          ],
          [
            [
              -0.3279804,
              39.4676624
            ],
            [
              -0.3280922,
              39.4677052
            ],
            [
              -0.3281539,
              39.467759
            ],
            [
              -0.3281941,
              39.4678209
            ],
            [
              -0.328203,
              39.467935
            ]
          ],
          [
            [
              -0.328203,
              39.467935
            ],
            [
              -0.328127,
              39.4684375
            ]
          ]
        ]
      }
    }
  ]
}